ID;govnr;name;river;area_gov;elev;lon;lat;country;fedstate;region;obsbeg_day;obsbeg_hr;obsend;gaps_pre;gaps_post;area_ratio;nrs_euhyd;nrs_rivat;typimpact;diur_art;diur_glac;degimpact
1;200014;Bangs;Rhein;4647.9;420;4285776;2684573;AUT;VBG;Rhine;1996;1996;0;0.000;0.000;1.004;RL26007414;20447278;A;1;0;s
2;200048;Schruns (Vonbunweg);Litz;102.0;673;4314439;2662977;AUT;VBG;Rhine;1981;1976;0;0.000;0.000;1.003;RL26006574;20452702;-;0;0;l
3;231662;Loruens-Aeule;Ill;535.2;579;4309441;2668819;AUT;VBG;Rhine;1985;1985;0;0.000;0.000;1.002;RL26006800;20451771;A,I;1;0;s
4;200592;Kloesterle (OEBB);Alfenz;66.6;1014;4325696;2668384;AUT;VBG;Rhine;1998;1998;0;0.034;0.000;0.995;RL26006781;20451185;A;1;0;s
5;200097;Buers (Bruecke L82);Alvier;72.2;564;4306022;2670821;AUT;VBG;Rhine;1990;1990;0;0.000;0.000;1.003;RL26006921;20450952;E,F;0;0;s
6;200105;Garsella;Lutz;95.5;730;4311594;2679239;AUT;VBG;Rhine;1981;1976;0;0.000;0.000;0.998;RL26007218;20448450;-;0;0;l
7;231688;Beschling;Ill;1118.6;485;4296647;2676356;AUT;VBG;Rhine;1985;1985;0;0.000;0.000;1.022;RL26007117;20449191;A,E,I;1;0;s
8;200501;Amerluegen;Samina;70.0;603;4291748;2677010;AUT;VBG;Rhine;1991;1991;0;0.000;0.000;0.991;RL26007210;20450008;A,E;0;0;s
9;200147;Gisingen;Ill;1281.0;434;4289103;2683066;AUT;VBG;Rhine;1981;1976;0;0.000;0.000;1.001;RL26007510;20448448;A,E,I;1;0;s
10;200154;Laterns;Frutz;33.4;831;4300461;2682632;AUT;VBG;Rhine;1981;1976;0;0.000;0.000;0.999;RL26007354;20447746;-;0;0;l
11;200527;Brederis;Ehbach;25.2;427;4290272;2685650;AUT;VBG;Rhine;1991;1991;0;0.000;0.000;1.011;RL26007427;;-;0;0;l
12;200162;Meiningen (Guefel);Ehbach;39.1;419;4289160;2688098;AUT;VBG;Rhine;1986;1986;0;0.014;0.000;0.913;RL26007551;20447745;I,J;0;0;s
13;200196;Lustenau (Hoechster Bruecke);Rhein;6301.1;394;4295543;2704284;AUT;VBG;Rhine;1981;1990;0;0.000;0.000;1.001;RL26008222;20442846;A;1;0;s
14;200204;Enz;Dornbirnerach;51.1;467;4302992;2698201;AUT;VBG;Rhine;1981;1976;0;0.000;0.000;1.037;RL26007893;20443864;A;0;0;s
15;200428;Schwarzach;Schwarzach;17.7;425;4302807;2703793;AUT;VBG;Rhine;1982;1982;0;0.000;0.000;0.994;RL26008069;20442466;-;0;0;l
16;200212;Hoher Steg;Dornbirnerach;112.9;399;4298383;2703839;AUT;VBG;Rhine;1981;1976;0;0.006;0.000;1.031;RL26008064;20442463;A;0;0;m
17;200576;Hohenems;Emsbach;8.2;409;4296744;2695478;AUT;VBG;Rhine;1998;1998;0;0.000;0.000;1.005;RL26007800;20444578;-;0;0;l
18;200220;Lustenau (Hofsteig);Rheintalbinnenkanal;77.5;400;4298069;2702372;AUT;VBG;Rhine;1981;1976;0;0.000;0.000;0.988;RL26008065;;J;0;0;l
19;200410;Lauterach;Dornbirnerach;195.6;395;4296990;2705510;AUT;VBG;Rhine;1984;1984;0;0.000;0.000;0.996;RL26008131;20442207;A;0;0;m
20;200246;Hopfreben;Bregenzerach;41.7;944;4324600;2685762;AUT;VBG;Rhine;1981;1976;0;0.000;0.000;0.977;RL26007472;20446934;-;0;0;l
21;200253;Au;Bregenzerach;149.3;774;4318987;2690449;AUT;VBG;Rhine;1981;1976;0;0.000;0.000;0.987;RL26007688;20445582;-;0;0;l
22;200261;Mellau;Bregenzerach;228.6;671;4312012;2693459;AUT;VBG;Rhine;1981;1976;0;0.006;0.000;0.996;RL26007752;20444923;-;0;0;l
23;200493;Reuthe;Bizauerbach;14.1;644;4313123;2695246;AUT;VBG;Rhine;1991;1991;0;0.000;0.000;0.996;RL26007797;20444582;-;0;0;l
24;200287;Schoenenbach (Hengstig);Subersach;31.1;981;4324085;2696922;AUT;VBG;Rhine;1981;1976;0;0.000;0.000;1.002;RL26007861;20444117;-;0;0;u
25;200584;Kaelberweide;Leckenbach;13.7;974;4322672;2706485;AUT;VBG;Rhine;1996;1996;0;0.000;0.000;1.027;RL26008152;20441832;D;0;0;l
26;200451;Hittisau (VKW);Bolgenach;81.5;747;4318271;2705460;AUT;VBG;Rhine;1998;1998;0;0.023;0.000;0.972;RL26008119;20441831;I;0;0;s
27;200303;Krumbach-Zwing;Weissach;199.3;540;4314824;2709843;AUT;VBG;Rhine;1981;1976;0;0.000;0.000;1.017;RL26008229;20441501;A,E;0;0;s
28;200311;Thal (Martinsbruecke);Rotach;83.8;539;4311538;2712748;AUT;VBG;Rhine;1981;1976;0;0.000;0.000;1.004;RL26008354;20440703;-;0;0;l
29;200329;Kennelbach;Bregenzerach;826.3;423;4304037;2706980;AUT;VBG;Rhine;1981;1976;0;0.000;0.000;1.003;RL26008195;20441384;A;1;0;s
30;200345;Lochau;Ruggbach;6.8;409;4301821;2713647;AUT;VBG;Rhine;1981;1967;0;0.000;0.000;1.001;RL26008333;20439870;-;0;0;l
31;200352;Unterhochsteg;Leiblach;102.4;396;4301122;2713757;AUT;VBG;Rhine;1981;1976;0;0.077;0.074;;;;E;0;0;x
32;200394;Unterhochsteg (Summenpegel);Leiblach mit Werkskanal;102.4;397;4301123;2713756;AUT;VBG;Rhine;1981;1990;0;0.110;0.098;1.026;RL26008426;20439869;-;0;0;l
33;200360;Lech;Zuersbach;25.2;1454;4331660;2676828;AUT;VBG;Danube above Inn;1981;1976;0;0.000;0.000;1.010;RL35047873;20449909;E;0;0;m
34;200378;Lech (Tannbergbruecke);Lech;84.3;1437;4331675;2677131;AUT;VBG;Danube above Inn;1981;1976;0;0.000;0.000;1.000;RL35048098;20449082;E;0;0;m
35;201012;Steeg;Lech;247.9;1109;4343239;2680966;AUT;TYR;Danube above Inn;1981;1976;0;0.000;0.000;0.999;RL35048602;20448086;E;0;0;l
36;201053;Vorderhornbach (Bruecke);Hornbach;64.0;957;4361662;2695151;AUT;TYR;Danube above Inn;1981;1976;0;0.000;0.000;1.004;RL35050559;20444822;-;0;0;u
37;202226;Stanzach;Namlosbach;66.4;937;4363548;2696821;AUT;TYR;Danube above Inn;1998;1998;0;0.000;0.000;1.002;RL35050857;20444823;-;0;0;u
38;201087;Lechaschau;Lech;1012.2;836;4374508;2709524;AUT;TYR;Danube above Inn;1981;1976;0;0.000;0.000;1.001;RL35052639;20441066;A,E;1;0;s
39;201111;Vils (Laende);Vils;198.1;807;4370012;2715539;AUT;TYR;Danube above Inn;1981;1976;0;0.000;0.000;1.004;RL35053340;20439257;A;1;0;s
40;201095;Scharnitz (Weidach);Isar;203.6;957;4416497;2698144;AUT;TYR;Danube above Inn;1981;1979;0;0.000;0.000;0.995;RL35051009;20444122;-;0;0;l
41;202143;Scharnitz (Giessenbach);Giessenbach;65.1;966;4416009;2698010;AUT;TYR;Danube above Inn;1987;1987;0;0.000;0.000;1.002;RL35050984;20444235;-;0;0;l
42;202127;Klamm;Leutascher Ache;45.0;1184;4405116;2695038;AUT;TYR;Danube above Inn;1984;1984;0;0.000;0.000;1.032;RL35050577;20444708;-;0;0;l
43;201152;Ehrwald (Viadukt);Loisach;88.4;958;4389869;2699825;AUT;TYR;Danube above Inn;1981;1980;0;0.000;0.000;0.984;RL35051396;20443429;-;0;0;l
44;201160;Schalklhof;Schalklbach;107.8;982;4358329;2647224;AUT;TYR;Inn above Salzach;1981;1976;0;0.000;0.000;1.009;RL35044291;20456417;-;0;0;l
45;201178;Kajetansbruecke;Inn;2162.0;967;4359982;2648854;AUT;TYR;Inn above Salzach;1981;1976;0;0.000;0.000;0.998;RL35044321;20456418;A,E;1;0;s
46;201194;Prutz;Inn;2461.5;861;4371231;2662811;AUT;TYR;Inn above Salzach;1981;1976;0;0.000;0.000;1.000;RL35046009;20453082;A,E,I;1;0;s
47;230300;Gepatschalm;Fagge;55.0;1895;4377121;2643013;AUT;TYR;Inn above Salzach;1983;1983;0;0.000;0.000;1.038;RL35043891;20457642;-;0;1;u
48;201251;St. Anton am Arlberg-Moos;Rosanna;130.6;1313;4340438;2667613;AUT;TYR;Inn above Salzach;1981;1976;0;0.000;0.000;0.999;RL35046549;20451546;A,E;1;0;s
49;201210;Galtuer-Au;Trisanna;97.6;1544;4336120;2651021;AUT;TYR;Inn above Salzach;1981;1977;0;0.000;0.000;1.006;RL35044608;20455510;E;1;0;s
50;201236;See i. P.;Trisanna;385.4;1017;4356900;2664090;AUT;TYR;Inn above Salzach;1981;1976;0;0.000;0.000;1.000;RL35046037;20452476;E;0;0;s
51;202036;Landeck-Bruggen;Sanna;727.0;775;4363718;2670149;AUT;TYR;Inn above Salzach;1981;1976;0;0.015;0.000;1.001;RL35046857;20451062;E;1;0;s
52;202101;Nassereith (Wiesenmuehle);Gurglbach;78.3;813;4384685;2687903;AUT;TYR;Inn above Salzach;1981;1981;0;0.000;0.000;0.987;RL35049706;20447630;-;0;0;l
53;201319;Imst (Bahnhof);Inn;3842.0;707;4378389;2678688;AUT;TYR;Inn above Salzach;1986;1986;0;0.000;0.000;0.999;RL35048181;20448838;A,E,I;1;0;s
54;201335;St. Leonhard im Pitztal;Pitze;165.4;1339;4385113;2662164;AUT;TYR;Inn above Salzach;1981;1976;0;0.000;0.000;1.045;RL35045760;20454249;E;0;1;s
55;202689;Vernagt;Vernagtbach;11.4;2640;4384253;2638491;AUT;TYR;Inn above Salzach;1981;1974;0;491.358;491.355;1.003;RL35043547;20458972;-;0;1;u
56;201350;Vent (oberh. Niedertalbach);Rofenache;98.1;1891;4390528;2638601;AUT;TYR;Inn above Salzach;1981;1976;0;0.000;0.000;0.998;RL35043474;20458484;-;0;1;u
57;201376;Obergurgl;Gurgler Ache;72.5;1879;4398990;2639998;AUT;TYR;Inn above Salzach;1981;1976;0;0.000;0.000;1.002;RL35043641;20458289;-;0;1;l
58;201392;Huben;Oetztaler Ache;517.2;1186;4394910;2659401;AUT;TYR;Inn above Salzach;1981;1976;0;0.000;0.000;0.999;RL35045562;20453824;-;0;1;l
59;230383;Fundusalm;Fundusbach;13.1;1594;4389045;2669316;AUT;TYR;Inn above Salzach;1984;1984;0;0.000;0.000;0.981;RL35046785;20451773;-;0;0;u
60;201434;Tumpen;Oetztaler Ache;785.5;931;4390095;2672594;AUT;TYR;Inn above Salzach;1981;1976;0;0.000;0.000;0.999;RL35047256;20450558;E;0;1;m
61;202093;Kuehtai;Laengentalbach;9.2;1902;4397130;2677507;AUT;TYR;Inn above Salzach;1981;1981;0;0.000;0.000;0.978;RL35047969;20449322;-;0;0;u
62;230342;Brunau;Oetztaler Ache;890.0;706;4386210;2679285;AUT;TYR;Inn above Salzach;1991;1991;0;0.000;0.000;1.001;RL35048408;20448967;E,F;0;1;m
63;201459;Magerbach;Inn;5118.8;653;4387340;2683247;AUT;TYR;Inn above Salzach;1981;1976;0;0.000;0.000;0.997;RL35048914;20448324;A,E;1;0;s
64;230078;Telfs (Fussgaengersteg);Inn;5289.7;616;4402199;2688151;AUT;TYR;Inn above Salzach;1986;1986;0;0.000;0.000;0.999;RL35049660;20446333;A,E,I;1;0;s
65;230706;In der Au;Melach;204.7;814;4414425;2679857;AUT;TYR;Inn above Salzach;1991;1991;0;0.000;0.000;0.998;RL35048358;20448839;E;0;1;s
66;201525;Innsbruck (oberh. Sill);Inn;5771.6;568;4425587;2684144;AUT;TYR;Inn above Salzach;1981;1976;0;0.000;0.000;0.999;RL35049152;20447528;A,E,I;1;0;s
67;202275;Lueg;Sill;22.2;1216;4434413;2658419;AUT;TYR;Inn above Salzach;1991;1991;0;0.000;0.000;0.974;RL35045403;20454153;-;0;0;l
68;201640;Gries am Brenner (mit UW-Kanal);Obernberger Seebach;58.3;1175;4433476;2659211;AUT;TYR;Inn above Salzach;1981;1976;0;0.000;0.000;1.000;RL35045402;20454253;-;0;0;l
69;201558;St. Jodok am Brenner;Valserbach;108.8;1121;4435004;2662154;AUT;TYR;Inn above Salzach;1981;1976;0;0.000;0.000;1.006;RL35045768;20453720;-;0;1;l
70;201566;Steinach am Brenner;Gschnitzbach;111.4;1040;4432319;2665477;AUT;TYR;Inn above Salzach;1981;1976;0;0.000;0.000;1.004;RL35046215;20452795;-;0;1;l
71;201574;Puig;Sill;341.8;1005;4431316;2667692;AUT;TYR;Inn above Salzach;1981;1976;0;0.000;0.000;1.002;RL35046535;20452229;-;0;1;l
72;201582;Muehlen;Navisbach;61.5;1009;4431809;2668018;AUT;TYR;Inn above Salzach;1981;1976;0;0.000;0.000;1.004;RL35046591;20451775;-;0;0;l
73;202283;Kroessbach;Ruetz;127.5;1086;4417250;2663776;AUT;TYR;Inn above Salzach;1991;1991;0;0.000;0.000;1.000;RL35046021;20453485;-;0;1;l
74;201624;Innsbruck-Reichenau;Sill;854.4;567;4427873;2685387;AUT;TYR;Inn above Salzach;1981;1976;0;0.000;0.000;1.000;RL35049355;20448200;E,G;1;1;s
75;201657;Wattens;Wattenbach;73.9;551;4441387;2688232;AUT;TYR;Inn above Salzach;1981;1976;0;0.000;0.000;1.005;RL35049740;20448969;-;0;0;l
76;201665;Weer;Weerbach;72.8;547;4444876;2689442;AUT;TYR;Inn above Salzach;1981;1976;0;0.000;0.000;1.005;RL35049921;20447290;-;1;0;s
77;201681;Jenbach-Rotholz;Inn;7230.7;522;4456171;2698906;AUT;TYR;Inn above Salzach;1981;1976;0;0.000;0.000;0.999;RL35051364;20443993;A,E,I;1;0;s
78;201699;Klaushof (Bruecke);Ziller;135.3;1011;4468382;2673410;AUT;TYR;Inn above Salzach;1981;1976;0;0.000;0.000;1.002;RL35047407;20450563;E,F;1;0;s
79;201996;Neukaser;Zamserbach;24.2;1786;4449855;2658644;AUT;TYR;Inn above Salzach;1981;1977;0;0.000;0.000;0.991;RL35045362;20454049;-;0;1;u
80;201715;Sausteinaste;Zemmbach;225.0;910;4458402;2669353;AUT;TYR;Inn above Salzach;1981;1976;0;0.000;0.000;1.004;RL35047297;20452012;E,F;0;0;s
81;201723;Persal;Tuxbach;129.2;882;4458614;2672312;AUT;TYR;Inn above Salzach;1981;1976;0;0.000;0.000;1.002;RL35047288;20450687;E;0;1;s
82;201749;Mayrhofen;Ziller;610.9;622;4462092;2674567;AUT;TYR;Inn above Salzach;1981;1976;0;0.000;0.000;1.002;RL35047743;20450144;A,I;1;0;s
83;230755;Schwendberg-Aue;Sidanbach;16.0;1383;4458404;2678864;AUT;TYR;Inn above Salzach;1996;1996;0;0.000;0.000;0.995;RL35048217;20449440;-;0;0;u
84;201756;Zell am Ziller-Zellbergeben;Ziller;696.3;570;4463455;2681937;AUT;TYR;Inn above Salzach;1981;1976;0;0.000;0.000;1.001;RL35048792;20448710;A,I;1;0;s
85;201970;EW-Gmuend;Gerlosbach;141.0;1193;4472948;2679561;AUT;TYR;Inn above Salzach;1981;1976;0;0.000;0.000;0.997;RL35048412;20448971;A,I;1;0;s
86;201772;Rohr;Gerlosbach;196.8;571;4464764;2682218;AUT;TYR;Inn above Salzach;1981;1976;0;0.000;0.000;1.004;RL35048793;20448841;A,E,I;1;0;s
87;201780;Hart im Zillertal;Ziller;1094.7;531;4461846;2694325;AUT;TYR;Inn above Salzach;1981;1976;0;0.000;0.000;1.000;RL35050636;20445242;A,I;1;0;s
88;201806;Brixlegg;Inn;8503.6;513;4462361;2703892;AUT;TYR;Inn above Salzach;1981;1976;0;0.000;0.000;1.000;RL35051905;20442731;A,E,I;1;0;s
89;230896;Steinberg am Rofan-Aussersteinberg;Grundache;15.0;984;4457180;2710368;AUT;TYR;Inn above Salzach;1981;1981;0;0.000;0.000;0.994;RL35052626;20441290;-;0;0;u
90;230904;Steinberg am Rofan-Untersteinberg;Muehlbach;13.0;955;4456806;2713065;AUT;TYR;Inn above Salzach;1981;1981;0;0.000;0.000;0.986;RL35052965;20440475;-;0;0;l
91;201822;Mariathal;Brandenberger Ache;272.6;529;4461724;2706341;AUT;TYR;Inn above Salzach;1981;1976;0;0.000;0.000;0.998;RL35052186;20442348;-;0;0;u
92;202697;Niederau;Wildenbach;9.7;791;4478595;2706508;AUT;TYR;Inn above Salzach;2006;2006;0;0.000;0.000;1.004;RL35052077;20442087;-;0;0;l
93;202218;Unterwindau;Windauer Ache;82.1;634;4485239;2704696;AUT;TYR;Inn above Salzach;1990;1990;0;0.000;0.000;0.999;RL35051863;20443316;-;0;0;l
94;201848;Hoerbrunn;Kelchsauer Ache;134.5;658;4482547;2703111;AUT;TYR;Inn above Salzach;1981;1976;0;54.024;54.021;0.995;RL35051913;20443213;-;0;0;l
95;201863;Bruckhaeusl;Brixentaler Ache;322.3;524;4479631;2710806;AUT;TYR;Inn above Salzach;1981;1976;0;0.000;0.000;0.997;RL35052791;20441291;-;0;0;l
96;201889;Kirchbichl - Bichlwang;Inn;9310.0;484;4478733;2714359;AUT;TYR;Inn above Salzach;1981;1977;0;0.009;0.000;0.999;RL35053251;20440715;A,E,I;1;0;s
97;202135;Soell;Stampfangerbach;20.9;628;4487373;2713619;AUT;TYR;Inn above Salzach;1987;1987;0;0.022;0.000;1.015;RL35053081;20440587;G;0;0;m
98;201897;Kaiserwerk;Weissache;94.0;556;4485035;2716719;AUT;TYR;Inn above Salzach;1982;1982;0;0.000;0.000;0.999;RL35053530;20440228;E;0;0;l
99;230938;Kufstein (OEBK);Sparchenbach;34.0;477;4485248;2722735;AUT;TYR;Inn above Salzach;2001;2001;0;0.014;0.000;1.003;RL35054179;20438277;-;1;0;s
100;202259;Thiersee;Thierseebach;6.2;616;4480464;2722124;AUT;TYR;Inn above Salzach;1996;1996;0;0.000;0.000;1.002;RL35054027;20438011;C;0;0;m
101;201830;Rettenschoess;Walchentaler Bach;3.9;690;4490536;2731277;AUT;TYR;Inn above Salzach;1984;1984;0;0.000;0.000;1.018;RL35055167;20436448;-;0;0;l
102;230912;Niederndorf (OEBK);Jennbach;37.6;479;4487135;2727693;AUT;TYR;Inn above Salzach;2000;2000;0;0.013;0.000;0.994;RL35054769;20436699;-;0;0;l
103;201913;Kitzbuehel (Bahnhofsbruecke);Kitzbueheler Ache;153.0;735;4501276;2707482;AUT;TYR;Inn above Salzach;1981;1976;0;0.000;0.000;1.001;RL35052388;20442351;-;0;0;l
104;202622;Kirchberg i.T.;Aschauer Ache;79.2;812;4495635;2706389;AUT;TYR;Inn above Salzach;2003;2003;0;0.000;0.000;0.979;RL35052072;20443214;-;0;0;l
105;201921;Sperten;Aschauer Ache;147.4;669;4502029;2714682;AUT;TYR;Inn above Salzach;1981;1976;0;0.000;0.000;1.001;RL35053191;20440345;-;0;0;l
106;201939;St. Johann in Tirol;Kitzbueheler Ache;332.4;660;4503123;2714670;AUT;TYR;Inn above Salzach;1981;1976;0;0.000;0.000;1.003;RL35053312;20440230;-;0;0;l
107;201947;Almdorf;Fieberbrunner Ache;165.9;664;4504944;2714813;AUT;TYR;Inn above Salzach;1981;1976;0;0.000;0.000;1.009;RL35053313;20440346;-;0;0;l
108;202382;Koessen-Huette;Grossache;701.4;589;4502514;2730626;AUT;TYR;Inn above Salzach;1993;1993;0;0.000;0.000;0.982;RL35054991;20436176;-;0;0;l
109;202549;Schwendt-Unterbichl;Kohlenbach;47.9;642;4500530;2725929;AUT;TYR;Inn above Salzach;1999;1999;0;0.000;0.000;0.988;RL35054587;20437531;-;0;0;l
110;202630;Koessen-Waidach;Kohlenbach;100.0;593;4500665;2729824;AUT;TYR;Inn above Salzach;2004;2004;0;0.000;0.000;1.098;RL35055012;20436323;D;0;0;l
111;203026;Wald i. Pzg.;Salzach;206.8;859;4490128;2683635;AUT;SBG;Salzach;1981;1977;0;0.000;0.000;0.999;RL35048983;20447970;A,E;1;0;s
112;203893;Kees;Obersulzbach;19.2;2040;4494266;2671012;AUT;SBG;Salzach;1989;1989;0;0.000;0.000;1.092;RL35047034;20451639;D;0;1;l
113;203034;Sulzau;Obersulzbach;80.7;882;4491221;2682328;AUT;SBG;Salzach;1981;1977;0;0.000;0.000;1.002;RL35048984;20449595;-;0;1;l
114;203042;Neukirchen;Untersulzbach;40.5;848;4492416;2682961;AUT;SBG;Salzach;1981;1977;0;0.000;0.000;1.003;RL35048951;20450689;-;0;1;l
115;203596;Habach;Habach;45.3;874;4496933;2684112;AUT;SBG;Salzach;1981;1980;0;0.000;0.000;1.009;RL35049225;20450016;-;0;1;l
116;203067;Muehlbach (Pinzgau);Muehlbach;32.3;814;4500928;2687600;AUT;SBG;Salzach;1987;1987;0;0.000;0.000;0.979;RL35049898;20447060;-;0;0;l
117;203075;Mittersill;Salzach;582.6;783;4508735;2688657;AUT;SBG;Salzach;1981;1976;0;0.000;0.000;1.014;RL35049745;20447062;A,E;1;1;s
118;203083;Haidbach;Felber Ache;74.5;891;4509272;2685270;AUT;SBG;Salzach;1981;1977;0;0.000;0.000;0.995;RL35049256;20448457;E;0;0;m
119;203984;Stuhlfelden;Stuhlfeldnerbach;11.4;785;4512630;2689140;AUT;SBG;Salzach;1993;1993;0;0.000;0.000;0.996;RL35050200;20446825;-;0;0;u
120;203554;Uttendorf;Stubache;127.9;789;4515454;2687075;AUT;SBG;Salzach;1981;1992;0;0.285;0.110;0.996;RL35049530;20447411;A,I;1;0;s
121;203109;Kaprun;Kapruner Ache;88.6;764;4529857;2688218;AUT;SBG;Salzach;1981;1977;0;0.000;0.000;1.003;RL35049912;20448973;A,I;1;0;s
122;203125;Bruck (Salzach);Salzach;1168.7;747;4534830;2690006;AUT;SBG;Salzach;1981;1977;0;0.000;0.000;0.999;RL35049945;20446832;A,E,I;1;0;s
123;203133;Ferleiten;Fuscher Ache;60.7;1142;4534315;2676899;AUT;SBG;Salzach;1981;1977;0;0.000;0.000;1.012;RL35047947;20451193;E;0;1;s
124;203141;Bruck (Fuscher Ache);Fuscher Ache;161.0;759;4534978;2688387;AUT;SBG;Salzach;1981;1977;0;0.151;0.148;1.012;RL35049897;20447977;A,E;1;1;s
125;203158;Bucheben;Huettwinkelache;96.1;1051;4546217;2676626;AUT;SBG;Salzach;1981;1977;0;0.000;0.000;0.999;RL35047855;20450463;E;0;0;s
126;203166;Rauris (Unterland);Rauriser Ache;242.2;917;4547529;2685377;AUT;SBG;Salzach;1981;1977;0;0.000;0.000;0.998;RL35049351;20448461;E;0;0;m
127;203851;Boeckstein (Summenpegel);Nassfelder Bach m.Werksk.;57.4;1115;4557568;2668742;AUT;SBG;Salzach;1982;1984;0;0.131;0.127;0.998;RL35046690;20452904;A,I;1;0;s
128;203208;Bad Hofgastein;Gasteiner Ache;220.7;837;4556818;2677111;AUT;SBG;Salzach;1981;1977;0;0.000;0.000;1.010;RL35048104;20450363;A,I;1;0;s
129;203968;Wallnerau (Summenpegel);Salzach m. KW-Schwarzach;2143.0;598;4557031;2693476;AUT;SBG;Salzach;1989;1997;0;0.141;0.136;1.001;RL35050365;20446463;A,E,I;1;0;s
130;203224;Grossarl;Grossarler Ache;144.6;880;4563132;2685638;AUT;SBG;Salzach;1981;1977;0;0.000;0.000;0.996;RL35049316;20448584;-;0;0;l
131;203265;Schwaighofbruecke;Lammer;171.7;628;4575724;2723631;AUT;SBG;Salzach;1981;1977;0;0.000;0.000;0.998;RL35054240;20438642;-;0;0;l
132;203927;Abtenau Au;Schwarzbach;26.9;650;4571973;2721471;AUT;SBG;Salzach;1988;1988;0;0.000;0.000;1.011;RL35053951;20439274;M;0;0;l
133;203307;Obergaeu;Lammer;394.5;471;4560433;2724057;AUT;SBG;Salzach;1981;1977;0;0.438;0.435;1.002;RL35054329;20438422;G;0;0;m
134;203315;Torren;Torrener Bach;65.5;467;4558569;2724769;AUT;SBG;Salzach;1981;1977;0;1.088;1.085;1.010;RL35054332;20438787;-;0;0;l
135;203323;Golling;Salzach;3555.7;463;4558985;2725328;AUT;SBG;Salzach;1981;1977;0;1.243;1.239;1.000;RL35054531;20438138;A,E,I;1;0;s
136;203364;St. Leonhard (Summenpegel);Berchtesgad.Ache m.Almk.;428.2;446;4549276;2739398;AUT;SBG;Salzach;1981;1997;0;0.011;0.000;0.998;RL35055966;20434846;C;0;0;m
137;204297;Salzburg (Summenpegel);Salzach;4425.7;408;4548486;2749418;AUT;SBG;Salzach;1981;1976;0;0.000;0.000;0.996;RL35056732;20432035;A,E,I;1;0;s
138;203430;Itzling;Alterbach;29.7;413;4548765;2750601;AUT;SBG;Salzach;1990;1990;0;0.000;0.000;1.016;RL35056750;20431416;-;0;0;l
139;203422;Moos;Glanbach;26.5;427;4546126;2744539;AUT;SBG;Salzach;1981;1977;0;0.447;0.444;0.999;RL35056413;20432771;-;0;0;l
140;204057;Seekirchen (Klaeranlage);Fischach;119.4;502;4554536;2757219;AUT;SBG;Salzach;1997;1997;0;0.000;0.000;1.007;RL35057255;20429587;D;0;0;l
141;203455;Lengfelden;Fischach;159.4;423;4548818;2752585;AUT;SBG;Salzach;1981;1977;0;0.000;0.000;1.005;RL35056901;20430713;D,G;0;0;m
142;203463;Viehhofen;Saalach;150.8;846;4527737;2698496;AUT;SBG;Salzach;1981;1977;0;0.000;0.000;1.001;RL35051040;20444593;-;0;0;l
143;203471;Saalfelden;Urslaubach;119.5;729;4535228;2705644;AUT;SBG;Salzach;1981;1977;0;0.000;0.000;1.005;RL35052140;20442971;-;0;0;l
144;203489;Uttenhofen;Leogangbach;112.3;719;4533733;2707077;AUT;SBG;Salzach;1981;1977;0;0.000;0.000;0.998;RL35052167;20442486;-;0;0;l
145;203505;Lofer (Loferbach);Loferbach;107.4;617;4524007;2722728;AUT;SBG;Salzach;1981;1977;0;0.000;0.000;1.082;RL35054126;20438419;D,G;0;0;m
146;203570;Siezenheim;Saalach;1139.1;416;4543821;2748698;AUT;SBG;Salzach;1981;1976;0;0.820;0.817;;;;A,E;1;0;x
147;203521;Siezenheim (Summenpegel);Saalach mit Werkskanaelen;1139.1;416;4543821;2748698;AUT;SBG;Salzach;1981;1984;0;0.892;0.889;1.006;RL35056780;20432875;A;1;0;s
148;203844;Nussdorf;Oichtenbach;40.5;414;4545377;2767338;AUT;SBG;Salzach;1983;1983;0;0.000;0.000;1.006;RL35057771;20428066;-;0;0;l
149;203539;Oberndorf;Salzach;6120.0;387;4539719;2762781;AUT;SBG;Salzach;1981;1977;0;0.000;0.000;0.999;RL35057586;20428065;A,E,I;1;0;s
150;204545;Steinwag;Moosache;69.9;419;4539609;2773047;AUT;UAT;Salzach;1981;1976;0;0.000;0.000;1.006;RL35114055;20425058;-;0;0;l
151;203547;Au-St. Georgen bei Salzburg;Moosache;88.1;383;4535742;2768976;AUT;SBG;Salzach;1981;1977;0;0.225;0.222;1.005;RL35114037;20426524;-;0;0;l
152;204586;Laimhausmuehle;Mattig;66.6;498;4553684;2770179;AUT;UAT;Inn under Salzach;1981;1977;0;0.000;0.000;1.012;RL35113970;20426008;D,G;0;0;m
153;206698;Elexlochen;Berndorfer Bach;12.0;506;4552459;2770939;AUT;UAT;Inn under Salzach;1985;1985;0;0.000;0.000;0.984;RL35150411;20426267;-;0;0;l
154;204610;Pfaffstaett;Mattig;136.0;455;4555353;2778674;AUT;UAT;Inn under Salzach;1981;1976;0;0.000;0.000;0.996;RL35114399;20424348;-;0;0;l
155;206052;Hocheck (Forsthaus);Riedelbach;13.1;590;4570968;2776757;AUT;UAT;Inn under Salzach;1981;1977;0;0.000;0.000;1.019;RL35114426;20425307;-;0;0;u
156;204636;Friedburg;Schwemmbach;82.2;508;4563249;2772339;AUT;UAT;Inn under Salzach;1981;1977;0;0.000;0.000;0.971;RL35114071;20425403;-;0;0;l
157;203638;Strasswalchen;Hainbach;40.6;524;4563671;2768493;AUT;SBG;Inn under Salzach;1981;1976;0;0.595;0.592;1.015;RL35057799;20426888;-;0;0;l
158;206730;Lengau;Hainbach;48.1;504;4561233;2771339;AUT;UAT;Inn under Salzach;1987;1987;0;0.000;0.000;1.026;RL35057868;20426651;-;0;0;l
159;206839;Kolming;Schwemmbach;151.7;485;4560702;2774417;AUT;UAT;Inn under Salzach;1990;1990;0;0.038;0.034;0.991;RL35114237;20425521;B;0;0;m
160;206078;Furth (Bundesstrasse);Schwemmbach;188.8;429;4555189;2784665;AUT;UAT;Inn under Salzach;1981;1977;0;0.000;0.000;0.992;RL35114558;20422910;B,L;0;0;m
161;206086;Furth (Ort);Schalchener Brunnbach;31.2;426;4555237;2784828;AUT;UAT;Inn under Salzach;1981;1976;0;0.000;0.000;1.003;RL35114559;;-;0;0;l
162;204677;Jahrsdorf;Mattig;446.9;350;4549129;2797980;AUT;UAT;Inn under Salzach;1981;1976;0;0.000;0.000;0.993;RL35115277;20419478;-;0;0;l
163;204685;Waldzell;Waldzeller Ache;24.0;509;4576002;2785906;AUT;UAT;Inn under Salzach;1981;1977;0;0.000;0.000;0.979;RL35114642;20422414;-;0;0;l
164;204693;Mettmach;Mettmach;30.4;454;4569648;2790348;AUT;UAT;Inn under Salzach;1981;1977;0;0.000;0.000;0.988;RL35114935;20421527;-;0;0;l
165;206748;Altheim;Muehlheimer Ache;193.0;353;4560665;2798336;AUT;UAT;Inn under Salzach;1987;1987;0;0.000;0.000;0.996;RL35115195;20418807;-;0;0;l
166;204701;Bauerding;Lochbach;74.6;357;4557474;2797582;AUT;UAT;Inn under Salzach;1982;1982;0;0.000;0.000;0.990;RL35115252;20419977;-;0;0;l
167;204719;Mamling;Ach;314.9;328;4558654;2801497;AUT;UAT;Inn under Salzach;1981;1977;0;0.000;0.000;0.998;RL35115455;20418174;-;0;0;l
168;206805;Danner;Antiesen;55.6;409;4579141;2796930;AUT;UAT;Inn under Salzach;1990;1990;0;0.000;0.000;0.976;RL35115109;20420238;-;0;0;l
169;204727;Pramet;Oberach;13.2;506;4580555;2787113;AUT;UAT;Inn under Salzach;1981;1977;0;0.000;0.000;1.001;RL35114645;20422056;-;0;0;l
170;204735;Ried im Innkreis (Ort);Rieder Bach;69.3;422;4580289;2795421;AUT;UAT;Inn under Salzach;1981;1977;0;0.000;0.000;0.988;RL35115089;20419577;-;0;0;l
171;204750;Haging;Antiesen;164.9;378;4577127;2801493;AUT;UAT;Inn under Salzach;1981;1977;0;0.000;0.000;0.987;RL35115423;20418433;-;0;0;l
172;204768;Osternach;Osternach;68.6;357;4577141;2805936;AUT;UAT;Inn under Salzach;1981;1977;0;0.000;0.000;0.991;RL35115592;20417265;-;0;0;l
173;206201;Schaerding (Schreibpegel);Inn;25520.0;300;4574561;2821730;AUT;UAT;Inn under Salzach;1981;2012;0;0.000;0.000;1.001;RL35116363;20412871;A;1;0;s
174;206102;Pram;Pram;14.2;427;4588878;2797957;AUT;UAT;Inn under Salzach;1981;1977;0;0.000;0.000;1.000;RL35124183;20419716;-;0;0;l
175;204784;Riedau;Pram;60.2;365;4590438;2805637;AUT;UAT;Inn under Salzach;1981;1976;0;0.000;0.000;0.991;RL35124356;20417610;B;0;0;m
176;206326;Winertsham (Steg);Pram;128.1;336;4586015;2813584;AUT;UAT;Inn under Salzach;1981;1978;0;0.000;0.000;1.000;RL35124796;20415809;-;0;0;l
177;206268;Lohstampf;Messenbach;39.3;339;4585276;2813258;AUT;UAT;Inn under Salzach;1981;1978;0;0.000;0.000;0.999;RL35124795;20415910;-;0;0;l
178;204834;Alfersham;Pfudabach;81.3;330;4585603;2816248;AUT;UAT;Inn under Salzach;1981;1976;0;0.000;0.000;0.999;RL35125022;20414625;G;0;0;m
179;204867;Pramerdorf;Pram;340.9;308;4577229;2819106;AUT;UAT;Inn under Salzach;1981;1977;0;0.000;0.000;1.003;RL35116335;20414277;-;0;0;l
180;204875;Oberkappel;Ranna;132.5;492;4599298;2833543;AUT;UAT;Danube between Inn and Traun;1981;1976;0;27.015;27.012;1.013;RL35126045;20410427;A;0;0;s
181;206771;Koblmuehle;Kleine Muehl;43.7;482;4611244;2836649;AUT;UAT;Danube between Inn and Traun;1988;1988;0;0.000;0.000;1.008;RL35126457;20409954;-;0;0;l
182;204883;Obermuehl;Kleine Muehl;200.2;284;4611078;2823686;AUT;UAT;Danube between Inn and Traun;1981;1976;0;0.000;0.000;1.002;RL35125495;20413130;G;0;0;m
183;204891;Vorderanger;Grosse Muehl;125.3;589;4603750;2850320;AUT;UAT;Danube between Inn and Traun;1981;1976;0;0.046;0.043;0.984;RL35126860;20406370;-;0;0;l
184;204917;Furtmuehle;Grosse Muehl;256.4;504;4617373;2840441;AUT;UAT;Danube between Inn and Traun;1981;1976;0;0.000;0.000;0.988;RL35126491;20408835;G;0;0;m
185;204925;Hartmannsdorf;Steinerne Muehl;137.9;500;4619789;2837010;AUT;UAT;Danube between Inn and Traun;1981;1976;0;0.000;0.000;1.001;RL35126240;20410783;-;0;0;l
186;204933;Teufelmuehle;Grosse Muehl;453.5;479;4618690;2833744;AUT;UAT;Danube between Inn and Traun;1981;1977;0;0.000;0.000;0.996;RL35126127;20410429;G;0;0;m
187;207035;Wehrstelle KW Aschach;Donau;78190.0;260;4619146;2816242;AUT;UAT;Danube between Inn and Traun;1981;2008;0;0.000;0.000;0.998;RL35125033;20416607;A;1;0;s
188;204974;Stroetting;Trattnach;54.0;378;4598479;2797031;AUT;UAT;Danube between Inn and Traun;1981;1976;0;0.000;0.000;0.993;RL35123596;20421412;B;0;0;m
189;205013;Grieskirchen;Trattnach;135.9;330;4605220;2798605;AUT;UAT;Danube between Inn and Traun;1981;1977;0;0.000;0.000;1.003;RL35123764;20419240;-;0;0;l
190;205021;Bad Schallerbach;Trattnach;184.0;301;4612082;2798271;AUT;UAT;Danube between Inn and Traun;1981;1976;0;0.000;0.000;1.000;RL35123676;20419379;-;0;0;l
191;205047;Neumarkt im Hausruckkreis;Duerre Aschach;25.8;377;4598598;2802527;AUT;UAT;Danube between Inn and Traun;1981;1976;0;0.000;0.000;1.013;RL35124406;20418307;-;0;0;l
192;206151;Edtmuehle;Faule Aschach;56.4;362;4602767;2808551;AUT;UAT;Danube between Inn and Traun;1981;1977;0;0.000;0.000;0.998;RL35124450;20416732;G;0;0;m
193;206169;Niederspaching;Aschach;101.9;359;4603559;2808071;AUT;UAT;Danube between Inn and Traun;1981;1977;0;0.000;0.000;1.001;RL35124421;20416733;-;0;0;l
194;206177;Knotzberg;Leitenbach;48.4;418;4599821;2813601;AUT;UAT;Danube between Inn and Traun;1981;1977;0;0.000;0.000;0.992;RL35124812;20415811;-;0;0;l
195;205054;Kropfmuehle;Aschach;312.2;348;4609557;2814059;AUT;UAT;Danube between Inn and Traun;1981;1977;0;0.000;0.000;1.002;RL35124944;20415689;-;0;0;l
196;206656;Zwettl an der Rodl;Grosse Rodl;59.6;614;4637097;2826352;AUT;UAT;Danube between Inn and Traun;1984;1984;0;0.000;0.000;0.999;RL35125752;20412625;-;0;0;l
197;206664;Zwettl an der Rodl (Gemeindeamt);Diestlbach;27.9;611;4636689;2826098;AUT;UAT;Danube between Inn and Traun;1985;1985;0;0.000;0.000;1.018;RL35125970;20412624;-;0;0;l
198;205088;Rottenegg;Grosse Rodl;227.4;272;4627495;2814634;AUT;UAT;Danube between Inn and Traun;1981;1976;0;0.000;0.000;1.002;RL35124840;20415486;-;0;0;l
199;205096;Asberg;Grosser Haselbach;27.9;355;4638893;2814892;AUT;UAT;Danube between Inn and Traun;1981;1977;0;0.000;0.000;0.990;RL35124947;20416506;-;0;0;l
200;210526;Archkogl;Traun;114.4;706;4608494;2730362;AUT;STY;Traun;1981;1976;0;0.000;0.000;1.072;RL35080856;20437296;D;0;0;l
201;210542;Altaussee (Traun);Altausseer Traun;54.5;709;4604215;2731766;AUT;STY;Traun;1981;1976;0;0.000;0.000;0.988;RL35081147;20436924;D;0;0;l
202;210559;Altaussee (Augstbach);Augstbach;10.5;714;4604118;2732057;AUT;STY;Traun;1981;1976;0;6.811;6.808;1.050;RL35081296;20436923;-;0;0;l
203;210583;Kainisch;Oedenseetraun;57.4;764;4609940;2724981;AUT;STY;Traun;1981;1976;0;16.393;16.390;0.984;RL35080171;20438644;D;0;0;l
204;205104;Obertraun;Traun;317.4;526;4601056;2723737;AUT;UAT;Traun;1981;1977;0;0.000;0.000;1.037;RL35080306;20438905;D;0;0;l
205;205120;Waldbachstrub;Waldbach;31.3;533;4594457;2721887;AUT;UAT;Traun;1981;1976;0;0.000;0.000;1.340;RL35079810;20439386;-;0;0;u
206;205146;Steeg (Seeausfluss);Traun;615.2;506;4593951;2728858;AUT;UAT;Traun;1981;1977;0;0.000;0.000;1.046;RL35080955;20437412;A,C;0;0;s
207;205153;Bad Ischl (Maxquelle);Traun;720.2;459;4593318;2739635;AUT;UAT;Traun;1981;1977;0;0.000;0.000;1.040;RL35082006;20436049;A,C;0;0;s
208;205179;Strobl (Buerglstein);Ischl;125.4;537;4582796;2740490;AUT;UAT;Traun;1981;1977;0;0.000;0.000;0.992;RL35082072;20434250;C;0;0;m
209;205187;Bad Ischl (Giselabruecke);Ischl;251.8;470;4592167;2740484;AUT;UAT;Traun;1981;1976;0;0.000;0.000;1.000;RL35082086;20434593;A,C;0;0;s
210;206615;Mitterweissenbach;Mitterweissenbach;35.1;465;4595484;2744312;AUT;UAT;Traun;1982;1982;0;0.000;0.000;1.022;RL35082544;20433643;-;0;0;u
211;205203;Ebensee;Traun;1223.4;422;4602953;2750604;AUT;UAT;Traun;1981;1977;0;0.000;0.000;1.025;RL35083465;20432391;C;0;0;m
212;205229;Ebensee (Unterlangbath);Langbathbach;40.0;431;4603426;2751661;AUT;UAT;Traun;1981;1976;0;0.000;0.000;0.961;RL35083518;20431777;G;0;0;m
213;205278;Mondsee (Armaturenwerk);Zeller Ache;37.0;496;4570655;2754662;AUT;UAT;Traun;1981;1976;0;0.000;0.000;1.015;RL35057216;20431076;D;0;0;l
214;203661;Hof bei Salzburg;Fuschler (Griesler) Ache;34.9;660;4564001;2750487;AUT;SBG;Traun;1981;1976;0;0.000;0.000;0.995;RL35056740;20432143;D;0;0;l
215;205294;St. Lorenz;Griesler Ache;109.0;492;4570874;2752091;AUT;UAT;Traun;1981;1977;0;0.000;0.000;1.009;RL35056861;20431417;D;0;0;l
216;206185;See am Mondsee (Au);Seeache;247.4;477;4579733;2749361;AUT;SBG;Traun;1981;1977;0;0.000;0.000;0.996;RL35056699;20431906;C;0;0;m
217;205336;Weissenbach am Attersee;Aeusserer Weissenbach;31.2;473;4586160;2748596;AUT;UAT;Traun;1981;1976;0;0.000;0.000;1.087;RL35083147;20432388;-;0;0;u
218;205369;Raudaschlsaege;Ager;462.9;466;4590481;2766593;AUT;UAT;Traun;1981;1976;0;0.000;0.000;1.010;RL35085371;20428333;C;0;0;m
219;205377;Stauf;Voeckla;99.7;503;4578038;2769635;AUT;UAT;Traun;1981;1977;0;0.000;0.000;0.983;RL35113929;20426528;-;0;0;l
220;205385;Redl;Frankenburger Redl;58.1;470;4582253;2774246;AUT;UAT;Traun;1981;1976;0;0.000;0.000;1.007;RL35114109;20425308;-;0;0;l
221;205393;Timelkam;Voeckla;331.5;442;4589892;2772317;AUT;UAT;Traun;1981;1977;0;0.000;0.000;0.996;RL35121857;20425750;G;0;0;m
222;205401;St. Georgen im Attergau;Duerre Ager;51.4;531;4581317;2764237;AUT;UAT;Traun;1981;1977;0;0.000;0.000;1.064;RL35057462;;-;0;0;l
223;206383;Timelkam (Fussgaengersteg);Duerre Ager;103.5;444;4590338;2771835;AUT;UAT;Traun;1981;1979;0;0.000;0.000;0.979;RL35057884;20428188;L;0;0;m
224;205419;Voecklabruck;Voeckla;447.1;419;4593957;2773008;AUT;UAT;Traun;1981;1976;0;0.000;0.000;0.990;RL35121881;20425872;-;0;0;l
225;205427;Schalchham;Ager;949.9;411;4595931;2771878;AUT;UAT;Traun;1981;1977;0;0.000;0.000;1.005;RL35121829;20426133;C;0;0;m
226;205435;Aurachkirchen;Aurach;81.0;420;4600280;2769409;AUT;UAT;Traun;1981;1976;0;0.000;0.000;0.997;RL35085687;20428956;-;0;0;l
227;205450;Fischerau;Ager;1256.1;348;4606928;2782130;AUT;UAT;Traun;1981;1977;0;0.000;0.000;1.003;RL35122546;20424477;C,G;0;0;m
228;205468;Lambach (Traunbruecke);Traun;2740.9;341;4609739;2782743;AUT;UAT;Traun;1981;1976;0;0.000;0.000;1.011;RL35122582;20423476;C,D;1;0;s
229;205476;Oberschwaig;Schwaiger Bach;45.8;367;4607109;2783024;AUT;UAT;Traun;1981;1977;0;0.000;0.000;0.962;RL35122633;20423342;-;0;0;l
230;206508;Gruenau;Alm;181.9;519;4616585;2756161;AUT;UAT;Traun;1981;1980;0;0.000;0.000;0.936;RL35084373;20430720;D;0;0;l
231;205500;Friedlmuehle;Alm;326.1;442;4618755;2767295;AUT;UAT;Traun;1981;1977;0;0.096;0.092;0.963;RL35085490;20428189;G;0;0;m
232;206292;Au (Mittlere Au);Laudach;72.2;368;4612950;2777155;AUT;UAT;Traun;1981;1979;0;0.000;0.000;0.969;RL35122181;20425187;L;0;0;m
233;205518;Penningersteg;Alm;445.0;358;4613421;2778802;AUT;UAT;Traun;1981;1976;0;0.000;0.000;0.977;RL35122643;20424951;-;0;0;l
234;206409;Wels-Lichtenegg (Summenstation);Traun m.Welser Muehlbach;3387.1;309;4618355;2788875;AUT;UAT;Traun;1981;1951;0;0.000;0.000;1.010;RL35123093;20422061;C;1;0;s
235;205534;Oberschauersberg;Aiterbach;68.3;322;4619240;2788095;AUT;UAT;Traun;1981;1976;0;0.000;0.000;0.996;RL35085722;20422415;-;0;0;l
236;205633;Kirchdorf an der Krems;Krems;40.5;414;4627752;2763536;AUT;UAT;Traun;1981;1976;0;0.000;0.000;0.954;RL35085249;20429089;-;0;0;l
237;205641;Kremsmuenster (Ort);Krems;147.2;339;4629047;2779505;AUT;UAT;Traun;1981;1976;0;0.000;0.000;0.985;RL35122506;20425635;G;0;0;m
238;206813;Unterrohr;Sulzbach;74.8;318;4633782;2782187;AUT;UAT;Traun;1990;1990;0;0.000;0.000;1.001;RL35122539;20424478;-;0;0;l
239;205658;Kremsdorf;Krems;365.3;270;4638099;2796522;AUT;UAT;Traun;1981;1976;0;0.000;0.000;0.994;RL35123535;20421061;-;0;0;l
240;205690;St. Florian bei Linz;Ipfbach;86.0;258;4646528;2797457;AUT;UAT;Danube between Traun and Enns;1981;1977;0;0.000;0.000;0.995;RL35123864;20420241;G;0;0;m
241;206573;Engerwitzdorf;Grosse Gusen;106.7;313;4650261;2813249;AUT;UAT;Danube between Traun and Enns;1981;1981;0;0.000;0.000;1.000;RL35124821;20416144;-;0;0;l
242;206854;Unterweitersdorf;Kleine Gusen;76.6;327;4651876;2816067;AUT;UAT;Danube between Traun and Enns;1993;1993;0;0.000;0.000;0.992;RL35125011;20415690;-;0;0;l
243;206375;St. Georgen an der Gusen (Bad);Gusen;257.7;247;4650971;2806037;AUT;UAT;Danube between Traun and Enns;1981;1979;0;0.000;0.000;0.994;RL35124306;20418811;-;0;0;l
244;203711;Altenmarkt im Pongau;Enns;134.5;837;4579992;2702343;AUT;SBG;Enns;1981;1976;0;0.077;0.074;0.998;RL35051565;20444244;E;0;0;m
245;203737;Loebenau;Taurach;86.5;836;4584083;2701278;AUT;SBG;Enns;1981;1977;0;0.000;0.000;1.008;RL35077366;20446589;-;0;0;l
246;203919;Forstau;Forstaubach;57.2;882;4589554;2702589;AUT;SBG;Enns;1989;1989;0;0.000;0.000;1.024;RL35077352;20444247;-;0;0;l
247;210625;Tetter;Unterthaler Bach;65.2;1019;4601569;2700482;AUT;STY;Enns;1981;1976;0;0.000;0.000;0.967;RL35077049;20445248;D;0;0;l
248;210641;Schladming;Enns;648.8;725;4600171;2705165;AUT;STY;Enns;1981;1976;0;0.000;0.000;1.005;RL35077686;20443752;G;1;0;s
249;210740;Trautenfels;Enns;1519.0;640;4628805;2719716;AUT;STY;Enns;2002;2002;0;0.014;0.000;0.987;RL35079493;20441191;A,G,I;1;0;s
250;210732;Irdning;Donnersbach (Irdningbach);194.3;644;4629486;2718540;AUT;STY;Enns;1981;1976;0;0.000;0.000;0.984;RL35079490;20441631;E,G;0;0;s
251;210773;Aigen im Ennstal-Ketten;Gulling;155.9;644;4633416;2721187;AUT;STY;Enns;1981;1976;0;0.000;0.000;1.016;RL35079905;20440952;G;0;0;m
252;210799;Liezen (Roethelbruecke);Enns;2132.0;627;4641025;2724547;AUT;STY;Enns;1981;1976;0;0.000;0.000;0.995;RL35080308;20439148;A,G;1;0;s
253;210815;Selzthal;Paltenbach;368.7;633;4645115;2724342;AUT;STY;Enns;1981;1976;0;0.000;0.000;0.997;RL35080136;20439608;-;0;0;l
254;210823;Admont (Enns);Enns;2651.0;617;4656660;2728741;AUT;STY;Enns;1985;1985;0;0.000;0.000;0.996;RL35080640;20438430;A,G;1;0;s
255;210856;Hieflau;Erzbach;245.3;486;4677870;2732593;AUT;STY;Enns;1981;1976;0;0.000;0.000;1.025;RL35081215;20438142;D;0;0;l
256;210864;Gusswerk;Salza;280.0;736;4718685;2750661;AUT;STY;Enns;1981;1976;0;0.000;0.000;1.005;RL35083390;20434136;G;0;0;m
257;210880;Weichselboden;Radmerbach (Buchbach);54.1;669;4709181;2742680;AUT;STY;Enns;1981;1976;0;14.522;14.519;1.006;RL35082353;20435679;G;0;0;m
258;210898;Wildalpen;Salza;592.3;583;4695183;2740528;AUT;STY;Enns;1981;1976;0;0.000;0.000;1.002;RL35082181;20435943;C,E,M;0;0;m
259;206763;Platzl;Laussabach;93.5;421;4669033;2745822;AUT;STY;Enns;1986;1986;0;0.000;0.000;1.000;RL35082697;20434852;-;0;0;u
260;205732;Weyer Markt;Gaflenzbach;87.3;384;4669185;2759839;AUT;UAT;Enns;1981;1978;0;0.000;0.000;1.000;RL35084733;20430467;-;0;0;l
261;206540;Pechgraben;Pechgraben;24.6;421;4659706;2765519;AUT;UAT;Enns;1981;1980;0;0.000;0.000;1.005;RL35085439;20428827;-;0;0;l
262;205740;Reichraming;Reichramingbach;168.6;348;4654134;2762569;AUT;UAT;Enns;1981;1976;0;0.000;0.000;1.002;RL35085088;20430341;-;0;0;l
263;205757;Jaegerberg;Enns;4996.1;286;4650351;2777833;AUT;UAT;Enns;1981;1977;0;0.000;0.000;1.001;RL35122331;20425409;A;1;0;s
264;205765;Dietlgut;Steyr;25.2;643;4629547;2736887;AUT;UAT;Enns;1981;1977;0;0.000;0.000;1.003;RL35081657;20436808;-;0;0;u
265;205773;Polsterlucke;Krumme Steyr;15.6;614;4629789;2739544;AUT;UAT;Enns;1981;1977;0;0.000;0.000;1.117;RL35082019;20435210;-;0;0;u
266;205781;Hinterstoder;Steyr;81.8;599;4631791;2739767;AUT;UAT;Enns;1981;1977;0;0.000;0.000;1.023;RL35082020;20435211;-;0;0;l
267;205799;Kniewas;Steyr;184.9;469;4633509;2748118;AUT;UAT;Enns;1981;1976;0;0.000;0.000;1.009;RL35083176;20433266;-;0;0;l
268;205807;Spital am Pyhrn;Teichl;40.2;626;4646466;2737863;AUT;UAT;Enns;1981;1977;0;0.000;0.000;1.032;RL35082105;20435940;-;0;0;l
269;205815;Windischgarsten;Dambach;67.0;603;4645959;2743759;AUT;UAT;Enns;1981;1977;0;0.009;0.000;1.021;RL35082435;20434393;-;0;0;l
270;205823;Teichlbruecke;Teichl;148.6;571;4643176;2744113;AUT;UAT;Enns;1981;1977;0;0.000;0.000;1.000;RL35082691;20434256;-;0;0;l
271;206482;Rossleithen;Piessling;9.5;677;4641790;2741065;AUT;UAT;Enns;1981;1980;0;0.000;0.000;0.985;RL35082149;20435324;G,M;0;0;m
272;206821;Rossleithen (Klammstein);Hinterer Rettenbach;15.4;594;4643933;2747063;AUT;UAT;Enns;1991;1991;0;0.000;0.000;1.014;RL35082903;20433648;-;0;0;l
273;205831;St. Pankraz;Teichl;232.8;485;4636495;2748106;AUT;UAT;Enns;1981;1977;0;0.000;0.000;1.002;RL35083104;20433646;G;0;0;m
274;206524;Spering;Vorderer Rettenbach;15.0;514;4635507;2749920;AUT;UAT;Enns;1981;1980;0;0.000;0.000;1.005;RL35083359;20432656;-;0;0;u
275;205856;Steyrling;Steyrling;72.4;497;4630898;2752156;AUT;UAT;Enns;1981;1976;0;0.000;0.000;0.993;RL35083575;20431909;L;0;0;m
276;205864;Klaus an der Pyhrnbahn;Steyr;542.4;420;4632412;2755062;AUT;UAT;Enns;1981;1977;0;0.000;0.000;1.000;RL35084336;20431421;A;1;0;s
277;205872;Dandelmuehle;Paltenbach;43.0;399;4635631;2759257;AUT;UAT;Enns;1981;1978;0;0.000;0.000;1.016;RL35084644;20431667;-;0;0;l
278;205898;Molln;Krumme Steyrling;129.4;404;4641009;2762575;AUT;UAT;Enns;1981;1976;0;0.000;0.000;1.012;RL35085047;20429445;G;0;0;m
279;205583;Leonstein;Schmiedleitnerbach;20.9;423;4635906;2764936;AUT;UAT;Enns;1986;1986;0;0.000;0.000;1.005;RL35085240;20428823;-;0;0;u
280;205914;Pergern;Steyr;898.1;302;4645666;2780351;AUT;UAT;Enns;1981;1977;0;0.000;0.000;1.004;RL35122386;20424834;A;1;0;s
281;205922;Steyr (Ortskai);Enns;5915.4;281;4650897;2779871;AUT;UAT;Enns;1981;1977;0;0.000;0.000;1.002;RL35122351;20424729;A;1;0;s
282;206599;Steyr (Zollamt);Ramingbach;71.1;290;4652483;2780122;AUT;UAT;Enns;1981;1981;0;0.000;0.000;1.002;RL35122396;20426011;-;0;0;l
283;205948;Freistadt (Hafnerzeile);Feldaist;63.9;538;4653885;2831196;AUT;UAT;Danube between Enns and Morava;1981;1977;0;0.000;0.000;1.008;RL35126012;20412025;-;0;0;l
284;206581;Kefermarkt;Feldaist;189.2;462;4656343;2824737;AUT;UAT;Danube between Enns and Morava;1981;1981;0;0.000;0.000;0.979;RL35125646;20413473;-;0;0;l
285;206680;Weitersfelden;Wald-(Schwarze) Aist;101.7;677;4670020;2828754;AUT;UAT;Danube between Enns and Morava;1984;1984;0;0.000;0.000;0.998;RL35125955;20412381;-;0;0;l
286;205971;Pfahnlmuehle;Waldaist;266.1;322;4659705;2813193;AUT;UAT;Danube between Enns and Morava;1981;1977;0;0.000;0.000;1.005;RL35124803;20416246;-;0;0;l
287;205989;Schwertberg (Kaolinwerk);Aist;604.7;253;4660650;2807907;AUT;UAT;Danube between Enns and Morava;1981;1977;0;0.000;0.000;0.996;RL35124625;20418560;-;0;0;l
288;209247;St. Pantaleon (Sued);Erlabach;91.8;242;4659938;2798628;AUT;LAT;Danube between Enns and Morava;1981;1978;0;0.000;0.000;1.041;RL35123700;20422530;E;0;0;m
289;205997;Koenigswiesen (Ort);Grosse Naarn;80.4;563;4679206;2821768;AUT;UAT;Danube between Enns and Morava;1981;1977;0;0.000;0.000;0.982;RL35125386;20414741;G;0;0;m
290;206003;Unterweissenbach;Kleine Naarn;36.9;612;4674610;2825168;AUT;UAT;Danube between Enns and Morava;1981;1977;0;0.160;0.157;1.015;RL35125564;20416024;-;0;0;l
291;206029;Haid;Naarn;303.1;234;4668948;2799379;AUT;UAT;Danube between Enns and Morava;1981;1977;0;0.000;0.000;0.998;RL35123770;20420379;I;0;0;m
292;206037;Sturmmuehle;Klambach;87.6;232;4675964;2800279;AUT;UAT;Danube between Enns and Morava;1981;1977;0;0.000;0.000;1.004;RL35123738;20420704;-;0;0;l
293;207613;Isperdorf;Isper;164.7;233;4692709;2800309;AUT;LAT;Danube between Enns and Morava;1981;1977;0;0.000;0.000;1.003;RL35123928;20420382;G;0;0;m
294;209551;Lunz am See (Seestrasse);Ois;117.9;592;4697352;2762463;AUT;LAT;Danube between Enns and Morava;1984;1984;0;0.000;0.000;1.002;RL35085055;20430236;-;0;0;l
295;214445;Lunz am See (Wassercluster-Summe);Lunzer See;24.7;606;4698248;2761575;AUT;LAT;Danube between Enns and Morava;2009;2009;0;0.025;0.000;1.005;RL35084968;20431558;D;0;0;l
296;214254;Goestling (Weidenauer Bruecke);Ybbs;315.1;518;4690065;2756628;AUT;LAT;Danube between Enns and Morava;2008;2008;0;0.000;0.000;1.011;RL35084589;20431913;-;0;0;l
297;207654;Opponitz (Mirenau);Ybbs;506.9;391;4682182;2764859;AUT;LAT;Danube between Enns and Morava;1981;1976;0;0.000;0.000;1.000;RL35085241;20429452;-;0;0;l
298;209130;Ybbsitz (Obergurhof);Kleine Ybbs;98.5;399;4685479;2771101;AUT;LAT;Danube between Enns and Morava;2005;2005;0;0.000;0.000;0.998;RL35121791;20427797;-;0;0;l
299;207696;Krenstetten;Urlbach;155.8;304;4671400;2782741;AUT;LAT;Danube between Enns and Morava;1981;1978;0;0.000;0.000;1.005;RL35122604;20424481;-;0;0;l
300;207688;Greimpersdorf;Ybbs;1116.6;262;4685154;2789595;AUT;LAT;Danube between Enns and Morava;1981;1977;0;0.000;0.000;1.000;RL35123067;20423127;-;0;0;l
301;207704;Mitterbach (Bruecke);Grosse Erlauf;29.7;786;4717495;2758688;AUT;LAT;Danube between Enns and Morava;1981;1977;0;0.000;0.000;0.921;RL35084663;20432269;C;0;0;m
302;207712;Wienerbruck;Oetscherbach;36.1;622;4716090;2762540;AUT;LAT;Danube between Enns and Morava;1981;1976;0;0.000;0.000;0.992;RL35085023;20430841;-;0;0;u
303;207720;Reith;Grosser Lassingbach;23.2;794;4718354;2764314;AUT;LAT;Danube between Enns and Morava;1981;1976;0;0.000;0.000;0.989;RL35085288;20430346;-;0;0;l
304;207738;Kienberg (Neuhaus);Grosse Erlauf;203.3;381;4703808;2771016;AUT;LAT;Danube between Enns and Morava;1981;1976;0;0.000;0.000;0.997;RL35121804;20428605;A;0;0;s
305;207746;Gaming;Gamingbach;51.5;396;4702250;2771744;AUT;LAT;Danube between Enns and Morava;1981;1977;0;0.000;0.000;0.997;RL35121817;20427800;-;0;0;l
306;207787;Neubruck;Jessnitz;32.2;353;4708140;2776052;AUT;LAT;Danube between Enns and Morava;1981;1977;0;0.000;0.000;1.006;RL35122109;20427006;-;0;0;l
307;209882;Scheibbs (Kardinal Koenig Bruecke);Grosse Erlauf;330.2;325;4706346;2778915;AUT;LAT;Danube between Enns and Morava;2007;2007;0;7.905;7.894;0.982;RL35122450;20426012;A;0;0;m
308;209403;Schliefau;Schliefaubach;17.7;386;4690201;2778768;AUT;LAT;Danube between Enns and Morava;1981;1981;0;0.000;0.000;1.014;RL35122285;20425755;-;0;0;l
309;209817;Wang;Kleine Erlauf;127.6;313;4695431;2783288;AUT;LAT;Danube between Enns and Morava;2007;2007;0;0.000;0.000;0.987;RL35122700;20424836;-;0;0;u
310;207795;Wieselburg (Messegelaende);Kleine Erlauf;167.5;248;4702987;2792621;AUT;LAT;Danube between Enns and Morava;1981;1976;0;0.000;0.000;1.005;RL35123270;20422914;-;0;0;l
311;207803;Niederndorf;Erlauf;604.9;225;4705683;2797500;AUT;LAT;Danube between Enns and Morava;1981;1977;0;0.000;0.000;0.990;RL35123658;20421291;A;0;0;m
312;209387;Laimbach;Laimbach;10.6;515;4700993;2813505;AUT;LAT;Danube between Enns and Morava;1981;1981;0;0.000;0.000;1.059;RL35124785;20417272;-;0;0;l
313;207811;Weitenegg;Weitenbach;216.9;234;4713340;2805998;AUT;LAT;Danube between Enns and Morava;1981;1976;0;0.000;0.000;0.995;RL35124418;20419484;-;0;0;l
314;207134;Melk (Strom-km 2035,98);Donau;94813.3;200;4716654;2805429;AUT;LAT;Danube between Enns and Morava;1981;1997;0;0.196;0.190;0.999;RL35124213;20419485;A;1;0;s
315;209197;Lachau;Melk;95.2;251;4712955;2790777;AUT;LAT;Danube between Enns and Morava;1981;1977;0;0.000;0.000;1.001;RL35123407;20423233;-;0;0;l
316;207829;Hoersdorf;Mank;37.6;280;4717811;2792547;AUT;LAT;Danube between Enns and Morava;1981;1976;0;0.000;0.000;0.988;RL35123268;20424485;-;0;0;l
317;207837;Matzleinsdorf;Melk;284.6;212;4713101;2801782;AUT;LAT;Danube between Enns and Morava;1981;1976;0;0.000;0.000;1.005;RL35124127;20421656;-;0;0;l
318;207845;Schwarzenbach/Pielach (Guttenhof);Pielach;42.2;472;4722241;2775167;AUT;LAT;Danube between Enns and Morava;1981;1977;0;0.000;0.000;1.002;RL35122104;20427512;-;0;0;l
319;214312;Loich;Pielach;144.5;394;4723135;2781396;AUT;LAT;Danube between Enns and Morava;2012;2012;0;0.000;0.000;1.001;RL35122474;20426014;-;0;0;l
320;207852;Hofstetten (Bad);Pielach;289.5;311;4731393;2791158;AUT;LAT;Danube between Enns and Morava;1981;1976;0;0.000;0.000;1.000;RL35123597;20423345;-;0;0;l
321;207860;Grosssierning;Sierningbach;87.7;237;4726754;2801401;AUT;LAT;Danube between Enns and Morava;1981;1977;0;0.000;0.000;1.049;RL35123970;20422182;-;0;0;l
322;209502;Elsarn;Spitzer Bach;48.6;313;4717903;2820042;AUT;LAT;Danube between Enns and Morava;1982;1982;0;0.000;0.000;0.997;RL35125278;20415692;-;0;0;l
323;207357;Kienstock;Donau;95970.0;194;4725376;2822619;AUT;LAT;Danube between Enns and Morava;1981;1997;0;0.000;0.000;0.999;RL35125456;20415491;A;1;0;s
324;214304;Furth (Feuerwehrhaus);Fladnitz;162.4;209;4736549;2822450;AUT;LAT;Danube between Enns and Morava;2010;2010;0;0.000;0.000;1.006;RL35125574;20415354;-;0;0;l
325;209361;Tuernitz Markt;Tuernitztraisen;103.0;459;4730822;2772362;AUT;LAT;Danube between Enns and Morava;1981;1981;0;0.000;0.000;0.999;RL35121866;20428198;-;0;0;l
326;209536;St. Aegyd am Neuwalde (Eisenwerk);Unrechttraisen;53.9;563;4738131;2765150;AUT;LAT;Danube between Enns and Morava;1983;1983;0;0.000;0.000;0.957;RL35085250;20430470;-;0;0;l
327;208868;Hohenberg (Sued);Unrechttraisen;104.0;485;4740993;2770313;AUT;LAT;Danube between Enns and Morava;2005;2005;0;0.000;0.000;0.996;RL35121748;20429092;-;0;0;l
328;207894;Lilienfeld-Marktl;Traisen;345.2;357;4738773;2783928;AUT;LAT;Danube between Enns and Morava;1981;1976;0;0.000;0.000;0.994;RL35122853;20425415;-;0;0;l
329;208793;Ramsau (Zentrum);Ramsaubach;40.1;468;4754100;2782491;AUT;LAT;Danube between Enns and Morava;2005;2005;0;0.000;0.000;1.028;RL35122567;20426395;-;0;0;l
330;209445;Haxenmuehle;Halbach;91.8;396;4747637;2785664;AUT;LAT;Danube between Enns and Morava;1981;1981;0;0.000;0.000;0.990;RL35122791;20426658;-;0;0;l
331;207902;St. Veit an der Goelsen;Goelsen;211.1;372;4745145;2786534;AUT;LAT;Danube between Enns and Morava;1981;1978;0;0.000;0.000;1.025;RL35122861;20424733;-;0;0;l
332;207910;Windpassing;Traisen;733.3;294;4740454;2797332;AUT;LAT;Danube between Enns and Morava;1981;1977;0;0.000;0.000;0.995;RL35123648;20423019;-;0;0;l
333;208777;Herzogenburg (Strassenbruecke);Traisen;823.7;220;4743974;2812964;AUT;LAT;Danube between Enns and Morava;2006;2006;0;0.000;0.000;1.005;RL35125299;20418312;E;0;0;s
334;207951;Neustift;Kamp;76.7;687;4693029;2834324;AUT;LAT;Danube between Enns and Morava;1981;1981;0;0.000;0.000;1.014;RL35126228;20411558;-;0;0;l
335;207936;Zwettl (Sportplatz);Zwettl;269.1;515;4701332;2846018;AUT;LAT;Danube between Enns and Morava;1981;1976;0;0.000;0.000;0.999;RL35126655;20408838;-;0;0;l
336;207944;Zwettl (Bahnbruecke);Kamp;621.8;507;4702143;2846364;AUT;LAT;Danube between Enns and Morava;1981;1976;0;0.000;0.000;1.001;RL35126687;20408727;-;0;0;l
337;207969;Kaltenbrunn;Purzelkamp;33.5;722;4704901;2834079;AUT;LAT;Danube between Enns and Morava;1981;1977;0;0.000;0.000;0.979;RL35126162;;-;0;0;l
338;207977;Rastenberg;Purzelkamp;94.5;517;4713605;2841414;AUT;LAT;Danube between Enns and Morava;1981;1977;0;0.000;0.000;1.004;RL35126482;20412026;-;0;0;l
339;207985;Rosenburg (EVN);Kamp;1150.2;262;4734526;2850876;AUT;LAT;Danube between Enns and Morava;1981;1976;0;0.000;0.000;1.001;RL35126926;20408294;A;1;0;s
340;209338;Frauenhofen;Taffa;140.0;305;4735656;2856205;AUT;LAT;Danube between Enns and Morava;1981;1980;0;0.000;0.000;1.001;RL35127111;20406994;-;0;0;l
341;208520;Rosenburg;Taffa;221.5;263;4737988;2851532;AUT;LAT;Danube between Enns and Morava;2004;2004;0;0.000;0.000;0.999;RL35127043;20407809;-;0;0;l
342;207993;Stiefern;Kamp;1493.3;217;4740887;2840811;AUT;LAT;Danube between Enns and Morava;1981;1976;0;0.000;0.000;1.001;RL35126441;20410317;A;1;0;s
343;207878;Imbach;Krems;305.9;231;4732547;2830189;AUT;LAT;Danube between Enns and Morava;1981;1976;0;0.000;0.000;1.000;RL35125893;20414394;-;0;0;l
344;209486;Boeheimkirchen;Perschling;55.3;231;4748886;2803543;AUT;LAT;Danube between Enns and Morava;1982;1982;0;0.000;0.000;0.975;RL35124189;20422793;-;0;0;l
345;208009;Atzenbrugg (Bundesstrassenbruecke);Perschling;268.3;185;4759216;2814876;AUT;LAT;Danube between Enns and Morava;1981;1976;0;0.000;0.000;0.986;RL35124923;20419042;-;0;0;l
346;208017;Siegersdorf;Grosse Tulln;202.3;196;4761628;2811261;AUT;LAT;Danube between Enns and Morava;1981;1976;0;2.377;2.315;0.997;RL35124860;20418924;-;0;0;l
347;209569;Sieghartskirchen (Steg);Kleine Tulln;68.5;190;4767129;2811903;AUT;LAT;Danube between Enns and Morava;1985;1985;0;0.000;0.000;0.994;RL35124818;20418695;-;0;0;l
348;209411;Unterkirchbach;Hagenbach;5.7;300;4780357;2817131;AUT;LAT;Danube between Enns and Morava;1981;1981;0;0.000;0.000;0.976;RL35125414;;-;0;0;l
349;208041;Hollenstein;Schmida;212.0;226;4758259;2844420;AUT;LAT;Danube between Enns and Morava;1981;1976;0;0.000;0.000;1.004;RL35126632;20410093;B;0;0;m
350;208058;Obermallebarn;Goellersbach;379.9;189;4775953;2835807;AUT;LAT;Danube between Enns and Morava;1981;1977;0;0.000;0.000;0.999;RL35126167;20412733;-;0;0;l
351;207241;Korneuburg;Donau;101536.6;160;4790241;2821690;AUT;LAT;Danube between Enns and Morava;1996;1997;0;0.000;0.000;0.999;RL35125412;20416871;A,G;0;0;m
352;209460;Klosterneuburg (Praegarten);Weidlingbach;33.2;168;4790268;2818262;AUT;LAT;Danube between Enns and Morava;1982;1982;0;41.267;40.989;0.991;RL35125098;20418180;-;0;0;l
353;207209;Wien (Brigittenau);Donaukanal;0.0;154;4793729;2813705;AUT;VIE;Danube between Enns and Morava;1997;1997;0;0.000;0.000;;;;H;0;0;x
354;209627;Purkersdorf;Gablitzbach;23.0;245;4779454;2807925;AUT;LAT;Danube between Enns and Morava;1991;1991;0;0.000;0.000;0.994;RL35124614;20419988;-;0;0;l
355;208082;Kennedybruecke;Wien;199.4;183;4789540;2806056;AUT;VIE;Danube between Enns and Morava;1981;1976;0;0.006;0.000;1.006;RL35124500;20420490;A,B,E;0;0;s
356;209478;Klausenleopoldsdorf;Schwechat;56.3;370;4768874;2793156;AUT;LAT;Danube between Enns and Morava;1982;1982;0;0.000;0.000;1.007;RL35123295;20424111;-;0;0;l
357;208090;Cholerakapelle;Schwechat;181.0;255;4781048;2785909;AUT;LAT;Danube between Enns and Morava;1981;1976;0;0.000;0.000;0.997;RL35122910;20425877;-;0;0;l
358;209718;Traiskirchen;Schwechat;265.7;192;4791199;2787100;AUT;LAT;Danube between Enns and Morava;2001;2001;0;0.000;0.000;1.158;RL35122875;20425878;E;0;0;s
359;208116;Fahrafeld;Triesting;186.0;338;4773609;2781456;AUT;LAT;Danube between Enns and Morava;1981;1977;0;0.000;0.000;1.003;RL35122505;20426791;-;0;0;l
360;208124;Hirtenberg;Triesting;287.3;279;4782157;2776625;AUT;LAT;Danube between Enns and Morava;1981;1977;0;0.000;0.000;1.008;RL35122217;20428201;-;0;0;l
361;208108;Moedling;Moedling;59.0;222;4788451;2794278;AUT;LAT;Danube between Enns and Morava;1981;1977;0;0.000;0.000;1.002;RL35123387;20424357;-;0;0;l
362;209783;Baden (Schlossgasse);Muehlbach;0.0;236;4784377;2785436;AUT;LAT;Danube between Enns and Morava;2000;2000;0;0.000;0.000;;;;H;0;0;x
363;209346;Hennersdorf;Petersbach;20.0;181;4794399;2798436;AUT;LAT;Danube between Enns and Morava;1982;1982;0;6.132;6.128;0.942;RL35123728;;-;0;0;l
364;208157;Schwechat (Hallenbad);Schwechat;1028.9;155;4802286;2801832;AUT;LAT;Danube between Enns and Morava;1981;1977;0;0.000;0.000;1.089;RL35123990;20422183;I;0;0;s
365;208199;Schwechat (Rathauspark);Kalter Gang;112.8;158;4802474;2801943;AUT;LAT;Danube between Enns and Morava;2002;2002;0;0.000;0.000;;;;M;0;0;x
366;208272;Gutenstein (Kirche);Piesting;50.3;478;4761071;2768857;AUT;LAT;Danube between Enns and Morava;1981;1979;0;0.000;0.000;0.993;RL35121643;20430093;-;0;0;l
367;208140;Oed (Bruecke);Piesting;226.0;388;4771158;2770027;AUT;LAT;Danube between Enns and Morava;2003;2003;0;0.000;0.000;1.015;RL35121689;20429987;E;0;0;s
368;208280;Woellersdorf (Hydro);Piesting;284.1;307;4783014;2769438;AUT;LAT;Danube between Enns and Morava;1981;1976;0;0.000;0.000;0.994;RL35121755;20430094;E;1;0;s
369;208298;Woellersdorf (Ausleitung);Tiroler Bach;0.0;309;4783009;2769375;AUT;LAT;Danube between Enns and Morava;1981;1980;0;0.000;0.000;;;;H;0;0;x
370;208306;Tattendorf;Piesting;315.0;221;4793822;2778009;AUT;LAT;Danube between Enns and Morava;1981;1976;0;0.000;0.000;1.044;RL35122370;20428965;E;1;0;s
371;208439;Fischamend (Rohrbruecke);Fischa;534.9;152;4812991;2798660;AUT;LAT;Danube between Enns and Morava;1981;1976;0;0.000;0.000;1.022;RL35123721;20423482;E;1;0;s
372;207373;Wildungsmauer;Donau;103992.7;139;4827166;2801314;AUT;LAT;Danube between Enns and Morava;1996;1997;0;0.000;0.000;0.999;RL35123908;20422535;A;0;0;m
373;207274;Hainburg an der Donau;Donau;104727.1;135;4836718;2805953;AUT;LAT;Danube between Enns and Morava;1981;1997;0;0.000;0.000;0.993;RL35124338;20421930;A;0;0;m
374;208769;Wolkersdorf (Rueckhaltebecken);Russbach;136.8;171;4802176;2829963;AUT;LAT;Danube between Enns and Morava;2005;2005;0;0.000;0.000;0.987;RL35126022;20414629;B;0;0;m
375;208454;Leopoldsdorf im Marchfelde;Russbach;437.5;145;4819588;2813049;AUT;LAT;Danube between Enns and Morava;1981;1977;0;29.901;29.898;1.100;RL35124952;20419386;E,I;0;0;s
376;209262;Engelhartstetten;Russbach;497.8;138;4833115;2809979;AUT;LAT;Danube between Enns and Morava;1981;1979;0;48.625;48.622;1.086;RL35124569;20420604;E,I;0;0;s
377;206557;Leopoldschlag;Maltsch;95.3;619;4652999;2843894;AUT;UAT;Vltava;1981;1980;0;0.000;0.000;0.988;RL27004434;20408623;-;0;0;l
378;208462;Ehrendorf;Lainsitz;267.6;482;4685301;2861515;AUT;LAT;Vltava;1981;1976;0;0.000;0.000;1.011;RL27004633;20404782;-;0;0;l
379;214296;Altmanns (Bruecke);Braunaubach;59.1;536;4693830;2875309;AUT;LAT;Vltava;2010;2010;0;0.000;0.000;0.970;RL27004965;20402574;K;0;0;m
380;208892;Heidenreichstein (Kleinpertholz);Romaubach;51.8;541;4695813;2873941;AUT;LAT;Vltava;2008;2008;0;2.509;2.497;1.004;RL27004867;20402575;K;0;0;m
381;208579;Hoheneich;Braunaubach;291.5;479;4688882;2863385;AUT;LAT;Vltava;1981;1976;0;0.000;0.000;0.993;RL27004631;20404244;K;0;0;m
382;214338;Gopprechts (Bruecke);Reissbach;102.5;498;4689954;2877062;AUT;LAT;Vltava;2011;2011;0;0.000;0.000;1.062;RL27005011;20401282;K;0;0;m
383;208611;Schwarzenau (Sued);Deutsche Thaya;175.5;491;4707479;2861340;AUT;LAT;Morava;1981;1976;0;0.000;0.000;0.991;RL35127321;20405298;-;0;0;l
384;209734;Peigarten;Taxenbach;154.7;458;4707679;2877866;AUT;LAT;Morava;1997;1997;0;0.011;0.000;1.011;RL35128181;20401468;A,K;0;0;m
385;209742;Merkengersch;Deutsche Thaya;586.8;451;4709833;2878554;AUT;LAT;Morava;1995;1995;0;0.000;0.000;1.000;RL35128377;20401469;A,K;0;0;m
386;209601;Alberndorf;Maehrische Thaya;621.5;409;4722106;2877554;AUT;LAT;Morava;1988;1988;0;0.000;0.000;1.003;RL35128464;20402088;A,K;0;0;m
387;208629;Raabs an der Thaya;Thaya;1405.8;395;4724333;2874166;AUT;LAT;Morava;1981;1977;0;0.000;0.000;1.000;RL35128009;20402576;A,K;0;0;m
388;209759;Aigen;Seebsbach;114.1;435;4723996;2870596;AUT;LAT;Morava;1999;1999;0;0.000;0.000;0.997;RL35127950;20403323;-;0;0;l
389;209171;Hardegg;Thaya;2382.3;281;4751118;2877036;AUT;LAT;Morava;1981;1977;0;0.009;0.000;1.002;RL35128182;20402210;A;1;0;s
390;209510;Pulkau;Pulkau;87.6;262;4751348;2860766;AUT;LAT;Morava;1984;1984;0;0.000;0.000;0.997;RL35127320;20406152;-;0;0;l
391;209155;Haugsdorf;Pulkau;277.0;198;4766517;2862355;AUT;LAT;Morava;2008;2008;0;0.000;0.000;1.007;RL35127389;20406157;-;0;0;l
392;208652;Blaustauden;Thaya-Muehlbach;139.9;184;4786892;2866428;AUT;LAT;Morava;1998;1998;0;0.000;0.000;1.082;RL35127753;20405299;A;0;0;s
393;207290;Bernhardsthal (Staatsgrenzpunkt IX);Thaya;12623.0;153;4827243;2868429;AUT;LAT;Morava;1999;1999;0;0.000;0.000;1.000;RL35127744;20406046;A,K;1;0;s
394;207308;Hohenau a. d. March (Fluss-km 66,92);March;24137.8;147;4831665;2855987;AUT;LAT;Morava;1986;1997;0;0.000;0.000;1.002;RL35127171;20408967;A,K;1;0;s
395;209452;Asparn an der Zaya;Zaya;80.6;213;4799469;2851779;AUT;LAT;Morava;1982;1982;0;0.000;0.000;1.001;RL35126982;20409964;-;0;0;l
396;209189;Niederabsdorf;Zaya;515.6;151;4827070;2852654;AUT;LAT;Morava;1981;1977;0;0.000;0.000;1.039;RL35127116;20409574;E;0;0;m
397;207324;Angern an der March;March;25623.8;140;4826578;2831163;AUT;LAT;Morava;1981;1997;0;0.000;0.000;1.000;RL35125921;20415697;A;1;0;s
398;208678;Bad Pirawarth;Weidenbach;71.0;167;4809811;2835072;AUT;LAT;Morava;1981;1977;0;0.000;0.000;1.015;RL35126207;20415591;-;0;0;l
399;207407;Thebnerstrassl;Donau;131384.0;133;4839845;2808214;AUT;LAT;Danube between Morava and Leitha;1999;1999;0;0.000;0.000;0.999;RL35124443;20421931;A;0;0;m
400;210435;Deutsch-Jahrndorf (Neuriessaecker);Wiesgraben;0.0;129;4851500;2789366;AUT;BLD;Danube between Morava and Leitha;1991;1991;0;0.000;0.000;;;;H;0;0;x
401;208686;Schwarzau im Gebirge (Bundesstrasse);Schwarza;128.4;602;4748159;2760639;AUT;LAT;Leitha;1981;1977;0;0.000;0.000;1.001;RL35084862;20432270;-;0;0;l
402;208694;Singerin;Nassbach;80.0;577;4749964;2756331;AUT;LAT;Leitha;1981;1976;0;0.000;0.000;0.999;RL35084323;20432888;-;0;0;l
403;208702;Singerin (Hoellental);Schwarza;252.3;569;4750614;2756380;AUT;LAT;Leitha;1981;1977;0;0.000;0.000;0.998;RL35084326;20433140;-;0;0;l
404;208710;Gloggnitz (Adlerbruecke);Schwarza;472.2;435;4766604;2747143;AUT;LAT;Leitha;1981;1977;0;0.000;0.000;0.997;RL35082917;20435563;E;0;0;m
405;208736;Stixenstein (Schloss);Sierning;89.7;460;4769137;2754841;AUT;LAT;Leitha;1981;1976;0;0.000;0.000;1.022;RL35083987;20433907;E;0;0;m
406;208744;Ternitz (Strassenbruecke);Sierning;114.1;389;4773513;2751940;AUT;LAT;Leitha;1981;1976;2018;0.000;0.000;1.004;RL35083764;20434599;E;0;0;m
407;208785;Loipersbach;Schwarza;716.6;344;4780014;2753090;AUT;LAT;Leitha;1981;1978;0;63.126;63.123;1.000;RL35084249;20434263;E,L;0;0;s
408;208819;Aspang-Hoell;Grosser Pestingbach;96.5;440;4779664;2737683;AUT;LAT;Leitha;1981;1977;0;0.000;0.000;0.999;RL35081752;20439285;-;0;0;l
409;214353;Feistritz am Wechsel (Summenstation);Feistritz;114.4;448;4778399;2738453;AUT;LAT;Leitha;1981;1977;0;0.018;0.000;1.013;RL35081866;20438147;-;0;0;l
410;214395;Petersbaumgarten;Pitten;271.1;385;4781326;2743784;AUT;LAT;Leitha;2013;2013;0;78.085;78.062;1.001;RL35082688;20437672;-;0;0;l
411;209544;Scheiblingkirchen;Schlattenbach;69.5;370;4781642;2746537;AUT;LAT;Leitha;1985;1985;0;0.000;0.000;1.010;RL35082871;20437045;-;0;0;l
412;208843;Bad Erlach;Pitten;412.9;307;4786757;2754343;AUT;LAT;Leitha;1981;1979;0;0.006;0.000;0.998;RL35084034;20435817;-;0;0;l
413;208884;Wiener Neustadt (Strassenbruecke);Leitha;1220.6;264;4790553;2763162;AUT;LAT;Leitha;1981;1980;0;40.705;40.702;1.009;RL35085200;;B,E,L;0;0;s
414;209288;Zillingdorf;Leitha;1242.2;238;4793881;2769487;AUT;LAT;Leitha;1981;1979;0;0.000;0.000;1.009;RL35085691;20433782;B,E,L;0;0;s
415;208918;Wiener Neustadt (Reitweg);Warme Fischa;92.5;263;4786477;2764762;AUT;LAT;Leitha;1981;1978;0;0.000;0.000;1.002;RL35085238;20431430;I;0;0;m
416;208926;Wiener Neustadt (Ostende);Warme Fischa;196.5;256;4789014;2765430;AUT;LAT;Leitha;1981;1980;0;0.000;0.000;0.995;RL35085338;20431431;-;0;0;l
417;208934;Peisching (Bruecke);Kehrbach;0.0;356;4778917;2753210;AUT;LAT;Leitha;1981;1978;0;0.000;0.000;;;;H;0;0;x
418;208942;Peisching;Muehlbach;0.0;356;4778885;2753216;AUT;LAT;Leitha;1981;1980;0;6.493;6.490;;;;H;0;0;x
419;208967;Katzelsdorf (EVN);Katzelsdorfer Werkskanal;0.0;270;4790166;2762127;AUT;LAT;Leitha;1981;1981;0;0.000;0.000;;;;H;0;0;x
420;208975;Wiener Neustadt (Flussbauhof);Wiener Neustaedter Kanal;0.0;261;4789265;2764414;AUT;LAT;Leitha;1981;1981;0;27.459;27.456;;;;H;0;0;x
421;208983;Wiener Neustadt (J. Straussg.);Kehrbach;0.0;255;4789304;2764887;AUT;LAT;Leitha;1981;1980;0;0.000;0.000;;;;H;0;0;x
422;214031;Deutsch Brodersdorf (Messseilbahn);Leitha;1598.9;193;4804406;2779508;AUT;LAT;Leitha;1981;1976;0;0.000;0.000;0.993;RL35122492;20430351;B,E;0;0;s
423;209007;Deutsch Haslau;Leitha;1982.0;139;4838008;2794784;AUT;LAT;Leitha;1981;1980;0;0.000;0.000;0.994;RL35123587;20425316;B,E;0;0;s
424;210443;Gattendorf (Schleuse);Kleine Leitha;0.0;136;4841821;2791776;AUT;BLD;Leitha;1990;1990;0;0.000;0.000;;;;H;0;0;x
425;210450;Deutsch-Jahrndorf (Albrechtmuehle);Kleine Leitha;0.0;131;4847954;2790878;AUT;BLD;Leitha;1990;1990;0;0.395;0.391;;;;H;0;0;x
426;210013;Nickelsdorf (Klaeranlage);Leitha;2131.3;127;4850093;2784529;AUT;BLD;Leitha;1984;1984;0;0.000;0.000;0.994;RL35122882;20427672;B,E;0;0;s
427;210021;Nickelsdorf (Poetschring);Komitatskanal;0.0;127;4850308;2785221;AUT;BLD;Leitha;1984;1984;0;0.000;0.000;;;;H;0;0;x
428;210039;Piringsdorf (Pfarrbruecke);Rabnitz;117.7;298;4804698;2724963;AUT;BLD;Rabnitz;1981;1976;0;0.086;0.083;1.008;RL35081420;20442227;-;0;0;l
429;210054;Mannersdorf a. d. Rabnitz (Hansaecker);Rabnitz;224.3;231;4813377;2723845;AUT;BLD;Rabnitz;1981;1976;0;0.000;0.000;1.017;RL35080230;20442986;-;0;0;l
430;210062;Oberpullendorf  (Fussgeherbruecke);Stoob;149.0;237;4811123;2731032;AUT;BLD;Rabnitz;1981;1976;0;0.644;0.620;0.998;RL35081425;20441072;-;0;0;l
431;210070;Walbersdorf;Wulka;78.1;219;4802136;2757178;AUT;BLD;Rabnitz;1983;1983;0;0.000;0.000;0.982;RL35085124;20433783;-;0;0;l
432;210088;Wulkaprodersdorf (Bundesstrasse B16);Wulka;220.1;162;4807673;2763796;AUT;BLD;Rabnitz;1981;1976;0;0.000;0.000;0.993;RL35085152;20432152;-;0;0;l
433;210328;Trausdorf an der Wulka;Wulka;235.9;143;4812271;2766595;AUT;BLD;Rabnitz;1981;1977;0;0.000;0.000;0.987;RL35085585;20431433;-;1;0;s
434;210096;Schuetzen am Gebirge;Wulka;383.7;122;4817271;2771025;AUT;BLD;Rabnitz;1981;1976;0;0.000;0.000;0.998;RL35121961;20431087;-;1;0;s
435;215020;Deutschkreutz;Goldbach;16.7;186;4817143;2742601;AUT;BLD;Rabnitz;1996;1996;0;0.000;0.000;1.021;RL35082355;20438026;B;0;0;m
436;210955;Arzberg (Moderbach);Moderbach;82.4;575;4738095;2697354;AUT;STY;Raab;1981;1976;0;0.000;0.000;0.996;RL35076687;20447867;-;0;0;l
437;211698;Arzberg (Raab);Raab;119.1;567;4738666;2697086;AUT;STY;Raab;1982;1982;0;0.000;0.000;1.000;RL35076635;20449449;-;0;0;l
438;211599;Mitterdorf an der Raab;Raab;183.7;398;4746660;2689287;AUT;STY;Raab;1981;1980;0;0.000;0.000;1.000;RL35075885;20450697;G;1;0;s
439;210963;Unterfladnitz;Weizbach;93.7;401;4750239;2690289;AUT;STY;Raab;1981;1976;0;0.000;0.000;1.017;RL35075808;20450698;-;0;0;l
440;211706;St. Ruprecht a. d. R. (Raab);Raab;300.8;370;4750661;2686984;AUT;STY;Raab;1984;1984;0;0.000;0.000;1.004;RL35075402;20452024;G;1;0;s
441;211888;Floecking;Rabnitzbach;94.0;354;4751690;2681785;AUT;STY;Raab;1991;1991;0;0.000;0.000;0.998;RL35074858;20452022;-;0;0;l
442;210971;Takern II;Raab;498.9;318;4758426;2675833;AUT;STY;Raab;1981;1976;0;0.000;0.000;1.001;RL35074225;20453731;G;1;0;s
443;210989;Feldbach;Raab;689.4;276;4768984;2667082;AUT;STY;Raab;1981;1976;0;0.000;0.000;1.002;RL35073200;20455854;G;1;0;s
444;210468;Neumarkt;Raab;986.5;231;4789664;2665680;AUT;BLD;Raab;1991;1991;0;0.000;0.000;1.004;RL35073019;20456545;E;1;0;s
445;210997;Rohrbach an der Lafnitz;Lafnitz;268.5;419;4774053;2715090;AUT;STY;Raab;1981;1976;0;0.000;0.000;0.999;RL35079116;20444010;-;0;0;l
446;211680;Hammerkastell;Lafnitz;285.5;365;4778128;2708816;AUT;BLD;Raab;1982;1982;0;0.000;0.000;1.001;RL35079018;20447071;-;0;0;l
447;210203;Markt Allhau (Musserbruecke);Stoegersbach;70.8;337;4781017;2705489;AUT;BLD;Raab;1981;1976;0;0.000;0.000;0.942;RL35077858;20447072;-;0;0;l
448;211003;Woerth an der Lafnitz;Lafnitz;439.4;300;4781975;2696293;AUT;BLD;Raab;1981;1976;0;0.006;0.000;0.994;RL35076775;20452587;G;0;0;m
449;211623;Poellau (Praetisbach-II);Praetisbach;21.1;433;4761527;2706119;AUT;STY;Raab;1981;1981;0;0.000;0.000;1.011;RL35077963;20446089;B;0;0;m
450;211631;Poellau (Saifenbach);Saifenbach;57.5;397;4762655;2704007;AUT;STY;Raab;1981;1981;0;14.365;14.362;1.007;RL35077748;20446721;-;0;0;l
451;211011;Waltersdorf in Oststeiermark;Safenbach;343.4;283;4776403;2691403;AUT;STY;Raab;1981;1976;0;0.000;0.000;1.000;RL35076006;20452721;G;0;0;m
452;210211;Dobersdorf;Lafnitz;925.1;234;4787279;2675746;AUT;BLD;Raab;1981;1976;0;0.000;0.000;0.997;RL35074361;20454597;-;0;0;l
453;211722;Rettenegg;Feistritz;43.0;850;4756838;2729262;AUT;STY;Raab;1987;1987;0;36.441;36.438;0.999;RL35080708;20440245;-;0;0;l
454;211029;Anger;Feistritz;408.0;465;4751339;2701504;AUT;STY;Raab;1981;1976;0;0.012;0.000;1.004;RL35077353;20450157;G;0;0;m
455;211037;Neudorf bei Ilz;Ilzbach;190.1;278;4772083;2681294;AUT;STY;Raab;1981;1976;0;0.000;0.000;0.995;RL35074813;20452909;-;0;0;l
456;210401;Eltendorf (Hackenwiesen);Lafnitz;1956.3;224;4792739;2672750;AUT;BLD;Raab;1981;1979;0;2.648;2.645;0.999;RL35073824;20454940;-;0;0;l
457;210419;Pinkafeld;Pinka;134.1;384;4782879;2714353;AUT;BLD;Raab;1987;1987;0;0.000;0.000;0.993;RL35079465;;-;0;0;l
458;210229;Oberwart (Landeshauptstrasse L382);Pinka;171.7;303;4791239;2704668;AUT;BLD;Raab;1981;1976;0;1.039;1.036;1.020;RL35077709;20448210;-;0;0;l
459;215012;Siget in der Wart;Zickenbach;118.8;281;4795844;2703364;AUT;BLD;Raab;1995;1995;0;0.000;0.000;0.999;RL35077615;20448211;-;0;0;l
460;210237;Woppendorf;Pinka;416.9;242;4804961;2697586;AUT;BLD;Raab;1981;1976;0;0.521;0.518;1.007;RL35076798;20449706;-;0;0;l
461;210245;Altschlaining;Tauchenbach;89.2;316;4795938;2709060;AUT;BLD;Raab;1981;1976;0;0.000;0.000;1.013;RL35078667;20447752;-;0;0;l
462;210252;Hannersdorf;Tauchenbach;175.4;247;4803930;2700304;AUT;BLD;Raab;1981;1976;0;0.000;0.000;1.003;RL35077027;20448853;B;0;0;m
463;210260;Burg;Pinka;664.1;238;4806562;2697904;AUT;BLD;Raab;1988;1988;0;0.000;0.000;1.005;RL35076794;20450570;-;0;0;l
464;215038;Moschendorf;Pinka;791.0;201;4811558;2682055;AUT;BLD;Raab;1997;1997;0;0.000;0.000;1.020;RL35075137;20453504;-;0;0;l
465;210476;Bocksdorf;Strem;89.2;237;4790041;2688867;AUT;BLD;Raab;1991;1991;0;0.161;0.131;0.981;RL35076316;;-;0;0;l
466;210484;Rauchwart;Strem;94.4;227;4793631;2688353;AUT;BLD;Raab;1991;1991;0;0.000;0.000;1.000;RL35075544;20451203;B,G;0;0;m
467;210286;Guessing (Kulturzentrum);Strem;316.4;210;4801113;2681391;AUT;BLD;Raab;1981;1976;0;0.000;0.000;0.999;RL35074791;20453405;B,K;0;0;m
468;210294;Heiligenbrunn;Strem;400.4;200;4808774;2678890;AUT;BLD;Raab;1981;1976;0;0.000;0.000;0.999;RL35074595;20454600;B;0;0;m
469;210302;Kirchschlag in der Buckl. Welt;Zoebernbach;113.6;408;4795573;2730043;AUT;LAT;Raab;1981;1976;0;0.000;0.000;1.004;RL35080792;20443333;-;0;0;l
470;210310;Rattersdorf;Guens;265.3;285;4811129;2721171;AUT;BLD;Raab;1981;1976;0;0.000;0.000;1.000;RL35079675;20445146;B;0;0;m
471;203745;Muhr;Mur;75.7;1120;4585826;2671719;AUT;SBG;Mur;1981;1976;0;0.015;0.000;1.010;RL35073724;20452581;A;1;0;s
472;203828;Unterweissburg;Zederhausbach;161.9;1060;4594586;2671530;AUT;SBG;Mur;1981;1981;0;0.000;0.000;0.994;RL35073828;20452232;-;1;0;s
473;203752;St. Michael i. Lg. (Mur);Mur;289.2;1042;4597206;2671169;AUT;SBG;Mur;1981;1976;0;0.000;0.000;1.002;RL35073637;20452370;A;1;0;s
474;203794;Moertelsdorf;Mur;366.9;1010;4608505;2675492;AUT;SBG;Mur;1981;1977;0;0.000;0.000;0.995;RL35074156;20452371;A;1;0;s
475;203760;Mauterndorf;Taurach;102.1;1108;4600491;2675879;AUT;SBG;Mur;1981;1976;0;0.000;0.000;1.015;RL35074224;20451197;G;0;0;m
476;203778;Weisspriach;Weisspriach;77.1;1097;4602072;2680520;AUT;SBG;Mur;1981;1976;0;0.077;0.074;0.993;RL35074729;20450818;-;0;0;l
477;203992;St. Andrae;Goeriachbach;48.4;1053;4608793;2678066;AUT;SBG;Mur;1993;1993;0;0.000;0.000;0.993;RL35074788;20450693;-;0;0;l
478;204008;Lessach;Lessachbach;70.2;1108;4609615;2680054;AUT;SBG;Mur;1993;1993;0;0.000;0.000;1.033;RL35074839;20450820;-;0;0;l
479;203786;Tamsweg (Taurach);Taurach;377.9;1019;4609595;2676442;AUT;SBG;Mur;1981;1976;0;0.669;0.666;1.003;RL35074347;20451323;-;0;0;l
480;203810;Madling;Thomatalbach;84.9;972;4610764;2670103;AUT;SBG;Mur;1981;1981;0;0.000;0.000;1.018;RL35073516;20453494;-;0;0;l
481;203976;Kendlbruck;Mur;955.0;933;4615928;2669507;AUT;SBG;Mur;1992;1992;0;0.000;0.000;1.002;RL35073461;20452905;A;1;0;s
482;211086;Gestuethof;Mur;1700.3;776;4640599;2675425;AUT;STY;Mur;1981;1976;0;0.000;0.000;0.999;RL35074188;20451782;A;1;0;s
483;211995;Katsch;Katschbach;176.0;765;4645424;2679382;AUT;STY;Mur;2000;2000;0;0.000;0.000;0.988;RL35074627;20451078;-;0;0;l
484;211102;St. Georgen ob Judenburg;Mur;2367.5;700;4665006;2687916;AUT;STY;Mur;1981;1976;0;0.000;0.000;0.998;RL35075490;20449331;A;1;0;s
485;214775;Hinterwinkel;Pusterwaldbach;25.3;1226;4646646;2702588;AUT;STY;Mur;2007;2007;0;0.000;0.000;0.971;RL35077315;20445473;-;0;0;u
486;211128;Poels;Poels;422.0;788;4667570;2689330;AUT;STY;Mur;1981;1976;0;0.009;0.000;0.998;RL35075774;20449094;G;0;0;m
487;211136;Zeltweg;Mur;2957.5;646;4681234;2686166;AUT;STY;Mur;1981;1976;0;0.000;0.000;1.000;RL35075336;20449791;A,G;1;0;s
488;211730;Eppenstein;Granitzenbach;153.1;708;4680491;2680418;AUT;STY;Mur;1987;1987;0;0.000;0.000;1.010;RL35074974;20451554;-;0;0;l
489;211920;Hammerjaeger;Ingeringbach;198.5;749;4680876;2693553;AUT;STY;Mur;1994;1994;0;0.000;0.000;1.002;RL35076238;20449446;E;0;0;m
490;211169;Kammern im Liesingtal;Liesingbach;265.6;648;4691345;2709461;AUT;STY;Mur;1981;1976;0;0.000;0.000;1.009;RL35078290;20444005;G;0;0;m
491;211193;St. Peter/Freienstein;Vordernberger Bach;167.3;595;4700905;2710765;AUT;STY;Mur;1981;1976;0;0.000;0.000;0.998;RL35078474;20444006;-;0;0;l
492;214536;Totes Weib;Muerz;103.7;847;4732273;2750172;AUT;STY;Mur;2003;2003;0;0.000;0.000;1.014;RL35083310;20434598;-;0;0;u
493;211227;Neuberg an der Muerz;Muerz;231.5;715;4740929;2742902;AUT;STY;Mur;1981;1976;0;0.006;0.000;0.997;RL35082319;20436191;G;0;0;m
494;211243;Kindtal;Muerz;727.7;570;4732937;2727696;AUT;STY;Mur;1981;1976;0;0.000;0.000;0.999;RL35080527;20440361;G;0;0;m
495;211862;Edelsdorf;Stanzbach;78.9;600;4732945;2722163;AUT;STY;Mur;1991;1991;0;0.000;0.000;0.997;RL35079762;20441748;G;0;0;m
496;211250;Hansenhuette;Thoerlbach;324.2;542;4716937;2720633;AUT;STY;Mur;1981;1976;0;0.000;0.000;1.049;RL35079699;20442496;G;0;0;m
497;211268;Kapfenberg-Diemlach;Muerz;1364.5;486;4718565;2716100;AUT;STY;Mur;1981;1976;0;0.000;0.000;1.000;RL35079165;20442862;G;0;0;m
498;211276;Arndorf;Lamingbach;153.4;503;4717718;2715495;AUT;STY;Mur;1981;1976;0;4.785;4.782;0.937;RL35079177;20442861;-;0;0;l
499;211292;Bruck an der Mur unter Muerz;Mur;6214.0;468;4719504;2713815;AUT;STY;Mur;1981;1976;0;0.000;0.000;1.000;RL35078851;20443438;A,G;1;0;s
500;211649;Deutschfeistritz;Uebelbach;117.8;397;4725578;2691021;AUT;STY;Mur;1981;1981;0;0.000;0.000;0.998;RL35075848;20449335;G;0;0;m
501;211763;Friesach;Mur;6791.5;380;4724159;2686744;AUT;STY;Mur;1987;1987;0;0.000;0.000;1.000;RL35075498;20451202;A,G;1;0;s
502;211326;Graz;Mur;6993.3;341;4733514;2677888;AUT;STY;Mur;1981;1976;0;0.000;0.000;;;;A,E;1;0;x
503;211573;Graz m. MK;Mur mit Muehlkanal;6993.3;341;4733514;2677888;AUT;STY;Mur;1981;1992;0;0.000;0.000;1.000;RL35074501;20453177;A;1;0;s
504;211870;Mellach m. MK;Mur mit Muehlkanal;7295.5;291;4739467;2658678;AUT;STY;Mur;1990;1990;0;0.000;0.000;1.000;RL35072279;20457539;A;1;0;s
505;211334;Voitsberg;Kainach;210.5;391;4712255;2672904;AUT;STY;Mur;1981;1976;0;0.000;0.000;1.002;RL35073894;20453401;G;0;0;m
506;211953;Hitzendorf;Liebochbach;50.0;359;4724085;2671271;AUT;STY;Mur;1995;1995;0;0.000;0.000;0.998;RL35073661;20455731;-;0;0;l
507;211342;Lieboch;Kainach;756.2;319;4727873;2663779;AUT;STY;Mur;1981;1976;0;0.000;0.000;1.015;RL35072867;20456428;A;1;0;s
508;211896;Gerbersdorf;Stiefing;80.0;294;4745394;2657896;AUT;STY;Mur;1993;1993;0;0.000;0.000;0.978;RL35072524;20459309;-;0;0;l
509;211391;Wies;Weisse Sulm;69.9;328;4724102;2637104;AUT;STY;Mur;1981;1976;0;0.000;0.000;1.005;RL35070150;20462209;-;0;0;l
510;211383;Schwanberg;Schwarze Sulm;75.2;402;4718630;2640882;AUT;STY;Mur;1981;1976;0;0.000;0.000;1.007;RL35070428;20461182;G;0;0;m
511;211961;Hoermsdorf;Saggaubach;56.0;345;4723680;2634601;AUT;STY;Mur;1994;1994;0;0.000;0.000;0.991;RL35069668;20463152;-;0;0;l
512;211656;Guendorf;Saggaubach;201.9;290;4734358;2638009;AUT;STY;Mur;1982;1982;0;0.000;0.000;1.017;RL35070031;20462405;-;0;0;l
513;211664;Frauental (Lassnitz);Lassnitz;85.3;323;4722489;2649080;AUT;STY;Mur;1982;1982;0;0.000;0.000;0.995;RL35071172;20459628;-;0;0;l
514;211813;Frauental (Wildbach);Wildbach;50.5;327;4722062;2649181;AUT;STY;Mur;1989;1989;0;0.374;0.370;0.994;RL35071327;20459198;E;0;0;s
515;211797;Wettmannstaetten;Lassnitz;216.4;290;4731610;2650651;AUT;STY;Mur;1989;1989;0;0.000;0.000;0.986;RL35071421;20459513;-;0;0;l
516;211854;Wieselsdorf;Stainzbach;144.8;290;4730454;2652515;AUT;STY;Mur;1990;1990;0;0.000;0.000;1.001;RL35071541;20458614;-;0;0;l
517;211805;Zehndorf;Gleinzbach;37.8;287;4733935;2650986;AUT;STY;Mur;1991;1991;0;0.000;0.000;0.993;RL35071483;20459975;K;0;0;m
518;211441;Tillmitsch;Lassnitz;480.4;272;4741810;2648763;AUT;STY;Mur;1981;1976;0;0.000;0.000;1.000;RL35071288;20460301;-;0;0;l
519;211458;Leibnitz;Sulm;1102.5;263;4743060;2645308;AUT;STY;Mur;1981;1976;0;0.000;0.000;1.003;RL35070873;20461183;E;0;0;m
520;211474;Lipsch;Schwarzaubach;124.2;256;4753612;2644317;AUT;STY;Mur;1981;1976;0;0.000;0.000;1.033;RL35070810;20462408;-;0;0;l
521;211490;Mureck (Schreibpegel);Mur;9769.9;224;4763809;2639293;AUT;STY;Mur;1981;1976;0;0.151;0.148;1.002;RL35070319;20462639;A,E,G;1;0;s
522;211516;Mureck mit Ausleitungsgerinne;Mur;9769.9;224;4763809;2639293;AUT;STY;Mur;2002;2002;0;0.014;0.000;;;;A;1;0;x
523;211508;Fluttendorf;Gnasbach;119.3;223;4768078;2641842;AUT;STY;Mur;1981;1976;0;0.000;0.000;1.025;RL35070641;20461546;-;0;0;l
524;202523;Arnbach;Drau;162.1;1108;4502484;2628224;AUT;TYR;Drava;1999;1999;0;0.000;0.000;0.978;RL35042701;20461528;-;0;0;l
525;212225;Ausservillgraten;Winkeltalbach;62.2;1257;4506724;2633402;AUT;TYR;Drava;1991;1991;0;0.000;0.000;1.000;RL35043049;20460290;-;0;0;l
526;212027;Rabland;Drau;374.0;1071;4508094;2628973;AUT;TYR;Drava;1981;1976;0;0.000;0.000;0.989;RL35042746;20461293;-;1;0;s
527;231092;Lienz-Falkensteinsteg;Drau;668.0;680;4531745;2637745;AUT;TYR;Drava;1991;1991;0;0.000;0.000;0.994;RL35043496;20459863;A;1;0;s
528;212043;Hinterbichl;Isel;107.0;1327;4498809;2658561;AUT;TYR;Drava;1981;1976;0;0.000;0.000;1.001;RL35045339;20454258;-;0;1;u
529;212233;Hinterbichl (Muehle, mit UW-Kanal);Dorferbach;35.0;1336;4498941;2658979;AUT;TYR;Drava;1981;1976;0;0.000;0.000;1.005;RL35045788;20454154;-;0;1;l
530;212183;Waier;Isel;285.3;931;4513303;2656655;AUT;TYR;Drava;1981;1976;0;0.000;0.000;0.997;RL35045045;20454811;-;0;1;l
531;212068;Innergschloess;Gschloessbach;39.3;1686;4507113;2670900;AUT;TYR;Drava;1981;1976;0;0.000;0.000;1.013;RL35047024;;-;0;1;l
532;212076;Matreier Tauernhaus;Tauernbach;59.9;1502;4510444;2670357;AUT;TYR;Drava;1981;1976;0;0.000;0.000;1.009;RL35046922;20451641;-;0;1;l
533;212092;Bruehl;Isel;518.4;920;4515148;2654661;AUT;TYR;Drava;1981;1976;0;0.000;0.000;0.998;RL35045044;20456537;E;0;1;l
534;212100;Hopfgarten i. Def.-Zwenewald;Schwarzach;268.6;1096;4512443;2648138;AUT;TYR;Drava;1981;1976;0;0.000;0.000;0.999;RL35044242;20456858;-;0;1;l
535;212118;Spoettling;Kalser Bach;47.0;1487;4521168;2660445;AUT;TYR;Drava;1981;1976;0;0.000;0.000;1.005;RL35045557;20454051;-;0;1;l
536;212126;Spoettling-Taurer;Teischnitzbach;13.9;1491;4521346;2660454;AUT;TYR;Drava;1981;1976;0;0.000;0.000;0.996;RL35045624;20454052;-;0;1;l
537;212167;Lienz;Isel;1198.7;667;4532185;2639296;AUT;TYR;Drava;1981;1976;0;0.000;0.000;1.000;RL35043533;20459191;A,E;1;1;s
538;212316;Lienz-Peggetz;Drau;1876.2;661;4533578;2638553;AUT;TYR;Drava;1981;1976;0;0.000;0.000;1.001;RL35043492;20459501;A;1;1;s
539;212217;Obernussdorf;Debantbach;56.8;1169;4536859;2643155;AUT;TYR;Drava;1986;1986;0;0.000;0.000;1.023;RL35043879;20459409;-;0;0;l
540;212324;Oberdrauburg-OWF;Drau;2112.0;616;4548308;2630594;AUT;CRN;Drava;1981;1976;0;0.000;0.000;0.998;RL35042851;20461436;A;1;1;s
541;212357;Sachsenburg (Bruecke);Drau;2561.4;555;4576671;2640443;AUT;CRN;Drava;1981;1976;0;0.000;0.000;0.999;RL35043651;20459193;A,E;1;1;s
542;213926;Heiligenblut-OWF;Moell;142.1;1230;4537126;2662309;AUT;CRN;Drava;2010;2010;0;0.000;0.000;1.003;RL35045779;20454053;E;0;0;s
543;212373;Winklern;Moell;412.1;878;4541211;2645333;AUT;CRN;Drava;1981;1976;0;0.000;0.000;1.005;RL35044031;20457954;E;0;0;s
544;213124;Flattach;Moell;705.3;687;4560019;2651712;AUT;CRN;Drava;1981;1976;0;0.009;0.000;1.000;RL35044588;20456539;A,E,I;1;0;s
545;212381;Mallnitz;Mallnitzbach;85.3;1174;4562585;2657321;AUT;CRN;Drava;1981;1976;0;0.000;0.000;1.006;RL35045215;20455515;-;0;0;l
546;213447;Zandlacher Huette;Riekenbach;12.6;1510;4573496;2650380;AUT;CRN;Drava;2000;2000;0;0.000;0.000;1.267;RL35044562;20457956;E,F;0;0;m
547;212399;Kolbnitz a. d. Tauernbahn VHP;Moell;1043.8;608;4572903;2645790;AUT;CRN;Drava;1981;1976;0;0.006;0.000;1.003;RL35044032;20458492;A,E,I;1;0;s
548;213199;Drauhofen;Drau;3674.4;547;4579609;2640584;AUT;CRN;Drava;1981;1976;0;0.009;0.000;0.999;RL35043642;20459505;A,E,I;1;0;s
549;213207;Gries;Lieser;56.5;1178;4594561;2664041;AUT;CRN;Drava;1981;1976;0;0.000;0.000;1.001;RL35072844;20453937;E;0;0;s
550;212431;Gmuend-OWF;Lieser;360.1;739;4590645;2649971;AUT;CRN;Drava;1981;1976;0;0.018;0.000;1.000;RL35071420;20457303;E;0;0;m
551;212456;Ochsenhuette-Hochalm;Hochalmbach;9.3;1995;4578237;2661565;AUT;CRN;Drava;1981;1976;0;91.387;91.384;0.957;RL35045793;;-;0;1;u
552;212472;Pflueglhof;Malta;131.3;847;4584131;2659274;AUT;CRN;Drava;1981;1976;0;0.000;0.000;1.000;RL35072449;20455046;E,F;0;0;s
553;212498;Sandriesen;Malta;266.0;740;4590181;2650677;AUT;CRN;Drava;2016;2016;0;2.854;1.998;1.006;RL35071601;20457302;E,F;0;0;s
554;213686;Alte Schmiede;St. Oswalder Bach;13.5;1304;4608886;2644384;AUT;CRN;Drava;1998;1998;0;0.000;0.000;1.014;RL35070747;20459622;-;0;0;l
555;213181;Doebriach;Rieger Bach;188.8;591;4599785;2635779;AUT;CRN;Drava;1981;1978;0;0.000;0.000;1.006;RL35069877;20460647;-;0;0;l
556;212522;Seebruecke;Millstaetter Seebach;286.6;587;4588960;2639694;AUT;CRN;Drava;1981;1976;0;0.006;0.000;0.998;RL35070193;20459620;D;0;0;l
557;212530;Spittal (Fasan);Lieser;1035.5;556;4588003;2638964;AUT;CRN;Drava;1981;1976;0;0.000;0.000;1.000;RL35070233;20460294;E,F;0;0;s
558;213215;Amlach;Drau;4789.6;523;4590248;2635386;AUT;CRN;Drava;1981;1977;0;0.000;0.000;1.000;RL35069737;20462204;A,E;1;0;s
559;213454;Gassen;Stockenboier Weissenbach;153.4;683;4593449;2630278;AUT;CRN;Drava;1993;1993;0;0.000;0.000;1.000;RL35069170;20462400;D;0;0;l
560;213462;Himmelberg;Tiebel;38.5;653;4630178;2634157;AUT;CRN;Drava;1989;1989;0;0.000;0.000;1.064;RL35069709;20461440;-;0;0;l
561;213876;Feldkirchen (Tiebel);Tiebel;60.2;537;4634083;2631872;AUT;CRN;Drava;2008;2008;0;0.000;0.000;1.076;RL35069297;20462526;-;0;0;l
562;213231;Sonnberg;Tiebel;86.9;504;4630600;2628483;AUT;CRN;Drava;1981;1977;0;0.000;0.000;1.020;RL35069040;20463348;-;0;0;l
563;212597;Urlaken-OWF;Ossiacher Seebach;169.7;500;4618403;2621410;AUT;CRN;Drava;1981;1976;0;0.000;0.000;0.975;RL35068356;20464056;D;0;0;l
564;213116;Toebring;Treffner Bach;140.1;513;4617057;2623222;AUT;CRN;Drava;1981;1976;0;0.000;0.000;1.001;RL35068575;20464055;D;0;0;l
565;212613;Maria Luggau (Moos);Gail;146.1;1087;4530737;2624908;AUT;CRN;Drava;1981;1976;0;0.000;0.000;0.985;RL35042487;20462517;-;0;0;l
566;212647;Mauthen;Gail;348.6;693;4550652;2621819;AUT;CRN;Drava;1981;1976;0;0.000;0.000;0.993;RL35042292;20463340;-;0;0;l
567;212670;Rattendorf;Gail;594.9;595;4570233;2617749;AUT;CRN;Drava;1981;1976;0;0.000;0.000;0.996;RL35042078;20464612;-;0;0;l
568;212704;Neudorf;Goesseringbach;75.2;582;4579537;2617528;AUT;CRN;Drava;1981;1976;0;0.000;0.000;0.999;RL35042071;20464849;-;0;0;l
569;212753;Noetsch;Gail;908.5;546;4598260;2614335;AUT;CRN;Drava;1981;1976;0;0.000;0.000;0.999;RL35067657;20465551;-;0;0;l
570;212761;Thoerl;Gailitz;188.0;593;4600995;2609493;AUT;CRN;Drava;1981;1976;0;0.000;0.000;1.001;RL35067030;20467346;G;0;0;m
571;212787;Federaun;Gail;1304.9;499;4613611;2613738;AUT;CRN;Drava;1981;1976;0;0.000;0.000;1.002;RL35067513;20466199;-;0;0;l
572;212837;Tscheppaschlucht;Loiblbach;44.0;575;4649751;2606753;AUT;CRN;Drava;1981;1976;0;0.000;0.000;0.992;RL35066951;20468194;-;0;0;l
573;213611;Bad Eisenkappel;Ebriacher Bach;69.5;539;4673247;2608219;AUT;CRN;Drava;2002;2002;0;92.682;92.675;0.999;RL35066925;20468408;-;0;0;l
574;212852;Miklauzhof;Vellach;194.3;459;4673470;2613492;AUT;CRN;Drava;1981;1976;0;0.000;0.000;1.012;RL35067535;20467351;-;0;0;l
575;212860;Maitratten;Gurk;201.4;976;4621372;2638271;AUT;CRN;Drava;1981;1976;0;0.000;0.000;0.981;RL35070135;;-;0;0;l
576;212878;Urschwirtbruecke;Gurk;230.3;935;4627221;2637297;AUT;CRN;Drava;1981;1976;0;0.006;0.000;0.987;RL35069922;20461072;L;0;0;m
577;213769;Deutsch Griffen;Griffenbach;29.5;750;4631858;2646538;AUT;CRN;Drava;2007;2007;0;0.000;0.000;1.002;RL35071012;20458414;-;0;0;l
578;212886;Weitensfeld (Ost);Gurk;431.8;693;4641430;2646380;AUT;CRN;Drava;1981;1976;0;0.000;0.000;0.995;RL35070970;20458701;-;0;0;l
579;213306;Grades;Metnitz;144.6;729;4646722;2660610;AUT;CRN;Drava;1982;1982;0;6.233;6.230;0.989;RL35072472;20455408;-;0;0;l
580;213405;Guldendorf;Olsabach;161.8;652;4654916;2661795;AUT;CRN;Drava;1994;1994;0;0.014;0.000;1.012;RL35073275;20455726;-;0;0;l
581;212894;Hirt;Metnitz;469.4;602;4659405;2653096;AUT;CRN;Drava;1981;1976;0;0.000;0.000;1.004;RL35071679;20457648;-;0;0;l
582;213397;Moelbling;Gurk;1061.0;579;4660384;2648720;AUT;CRN;Drava;1993;1993;0;0.000;0.000;1.006;RL35071469;20458887;-;0;0;l
583;213355;Passering;Silberbach;86.9;544;4661994;2643105;AUT;CRN;Drava;1988;1988;2019;0.000;0.000;0.954;RL35071038;20459752;-;0;0;l
584;213157;Launsdorf;Gurk;1243.1;510;4663065;2637796;AUT;CRN;Drava;1981;1976;0;0.000;0.000;1.000;RL35069998;20460953;-;0;0;l
585;213777;Muehlen (Bruecke);Steyerbach;37.5;932;4663435;2666661;AUT;CRN;Drava;1997;1997;2019;7.961;7.955;1.016;RL35073186;20454592;-;0;0;l
586;212928;Huettenberg;Goertschitz;130.3;778;4667351;2657664;AUT;CRN;Drava;1981;1976;0;0.000;0.000;0.993;RL35072116;20457424;-;0;0;l
587;212936;Brueckl;Goertschitz;315.6;506;4667126;2637066;AUT;CRN;Drava;1981;1976;0;0.000;0.000;0.999;RL35070137;20461304;-;0;0;l
588;213322;Mauthbruecken-OWF;Glan;87.2;500;4641421;2632172;AUT;CRN;Drava;1984;1984;0;0.000;0.000;1.027;RL35069534;20462207;-;0;0;l
589;213256;Breitenstein;Wimitz;106.5;517;4656432;2642264;AUT;CRN;Drava;1981;1977;0;0.000;0.000;1.000;RL35070722;20460296;-;0;0;l
590;213827;St. Veit;Glan;380.7;463;4655528;2637624;AUT;CRN;Drava;2007;2007;0;0.000;0.000;0.962;RL35069957;20461301;-;0;0;l
591;213330;Woelfnitz;Woelfnitzbach;57.4;452;4647479;2626361;AUT;CRN;Drava;1984;1984;0;0.000;0.000;0.992;RL35068857;20463589;-;0;0;l
592;213934;Klagenfurt_OWF;Glan;554.5;437;4651550;2622973;AUT;CRN;Drava;2012;2012;0;0.000;0.000;0.980;RL35068570;20464618;-;0;0;l
593;213496;Reifnitz;Reifnitzbach;33.2;441;4641472;2619308;AUT;CRN;Drava;1997;1997;0;0.000;0.000;1.072;RL35068073;20465444;D;0;0;l
594;213009;Viktring;Viktringer Bach;14.6;447;4648501;2618114;AUT;CRN;Drava;1995;1995;0;0.010;0.000;0.962;RL35068088;20465552;D;0;0;l
595;213017;Stein;Steiner Bach;19.2;446;4649163;2618285;AUT;CRN;Drava;1981;1973;2019;0.000;0.000;1.007;RL35068085;20466324;-;0;0;l
596;213025;Weinlaender;Glanfurt;201.3;434;4651521;2619261;AUT;CRN;Drava;1981;1976;0;0.000;0.000;1.069;RL35068086;20465298;A,C;0;0;m
597;213033;Zell;Glan;817.9;410;4658301;2620308;AUT;CRN;Drava;1981;1976;0;0.046;0.043;0.998;RL35068163;20465061;A,C;0;0;m
598;213041;Gumisch;Gurk;2555.4;394;4664182;2620648;AUT;CRN;Drava;1981;1976;0;0.000;0.000;1.000;RL35068203;20465063;-;0;0;l
599;213504;Voelkermarkt;Wurlabach;49.8;432;4675877;2628077;AUT;CRN;Drava;1993;1993;2019;0.009;0.000;0.963;RL35069075;20463826;-;0;0;l
600;213942;St. Stefan OWF;Globasnitzbach;21.1;511;4682313;2618173;AUT;CRN;Drava;2010;2010;0;0.000;0.000;1.087;RL35068142;20466916;-;0;0;l
601;213389;Kaunz;Woelfnitzbach;28.1;523;4683128;2635480;AUT;CRN;Drava;1988;1988;0;0.008;0.000;0.998;RL35070072;20462527;-;0;0;l
602;213173;Lavamuend Ort;Drau;11051.8;338;4699286;2626729;AUT;CRN;Drava;2009;2009;0;0.000;0.000;1.000;RL35068838;20464058;A;1;0;s
603;213363;Bad St. Leonhard;Lavant;200.6;668;4686606;2660771;AUT;CRN;Drava;1993;1993;0;0.000;0.000;1.001;RL35072507;20455957;-;0;0;l
604;213538;Waldenstein;Waldensteiner Bach;101.0;695;4692164;2658077;AUT;CRN;Drava;1997;1997;0;0.000;0.000;1.008;RL35072171;20456986;-;0;0;l
605;213082;St. Gertraud;Lavant;380.2;512;4691937;2653483;AUT;CRN;Drava;1981;1976;0;0.000;0.000;0.995;RL35071709;20458073;-;0;0;l
606;213314;St. Jakob;Weissenbach;55.9;460;4689830;2648423;AUT;CRN;Drava;1983;1983;0;0.013;0.000;1.002;RL35071136;20458989;-;0;0;l
607;213371;Fischering;Lavant;715.6;410;4690335;2642090;AUT;CRN;Drava;1989;1989;0;0.000;0.000;1.000;RL35070497;20460528;-;0;0;l
608;213819;St. Paul;Granitzbach;61.1;374;4693581;2632951;AUT;CRN;Drava;2007;2007;0;0.000;0.000;0.998;RL35069883;20462855;-;0;0;l
609;213090;Krottendorf;Lavant;954.5;354;4699501;2629232;AUT;CRN;Drava;1981;1976;0;0.000;0.000;0.999;RL35069078;20463709;-;0;0;l
610;10026301;Neu-Ulm Bad Held_Donau;Donau;7616.6;465;4320017;2808429;DEU;BAV;Danube above Inn;1981;1970;0;0.074;0.071;0.994;RL35115704;20414727;G;0;0;m
611;10035801;Dillingen;Donau;11378.7;415;4357820;2828432;DEU;BAV;Danube above Inn;1981;1970;0;0.074;0.071;0.993;RL35116732;20409832;-;0;0;l
612;10039802;Donauwoerth;Donau;15131.0;395;4380006;2844492;DEU;BAV;Danube above Inn;1981;1970;0;0.074;0.071;0.993;RL35117285;20405810;-;0;0;l
613;10046105;Ingolstadt Luitpoldstrasse;Donau;20252.1;360;4425881;2850357;DEU;BAV;Danube above Inn;1981;1970;0;0.684;0.672;0.996;RL35117561;20404985;A;0;0;m
614;10053009;Kelheim;Donau;23031.0;337;4457692;2868756;DEU;BAV;Danube above Inn;1981;1970;0;0.478;0.475;0.998;RL35118293;20402082;A;0;0;m
615;10062000;Schwabelweis;Donau;35476.0;324;4477437;2881206;DEU;BAV;Danube above Inn;1981;1970;0;15.968;15.832;0.996;RL35118932;20397931;A;0;0;m
616;10078000;Pfelling;Donau;37774.7;308;4522512;2866702;DEU;BAV;Danube above Inn;1981;1970;0;0.213;0.210;0.996;RL35118252;20402321;A;0;0;m
617;10088003;Hofkirchen;Donau;47517.8;300;4550418;2845210;DEU;BAV;Danube above Inn;1981;1970;0;0.959;0.956;1.001;RL35117303;20406987;A;0;0;m
618;11401009;Sonthofen;Iller;401.9;727;4340615;2712329;DEU;BAV;Danube above Inn;1981;1970;0;0.000;0.000;0.994;RL35052967;20440706;-;0;0;l
619;11402001;Kempten;Iller;955.3;656;4344783;2735251;DEU;BAV;Danube above Inn;1981;1970;0;0.000;0.000;0.992;RL35055576;20434245;A;0;0;m
620;11405000;Wiblingen_Iller;Iller;2064.2;468;4320088;2806379;DEU;BAV;Danube above Inn;1981;1970;0;0.000;0.000;1.082;RL35115661;20416014;A,E;0;0;s
621;11412107;Oberstdorf_Stillach;Stillach;80.5;783;4341491;2701066;DEU;BAV;Danube above Inn;1981;1970;0;5.500;5.497;1.013;RL35051446;20445031;G;0;0;m
622;11415008;Oberstdorf_Trettach;Trettach;75.4;788;4341710;2701488;DEU;BAV;Danube above Inn;2007;2007;0;0.301;0.083;1.025;RL35051447;20443425;-;0;0;l
623;11418250;Tiefenbach_Breitach;Breitach;147.9;796;4340204;2700431;DEU;BAV;Danube above Inn;2010;2010;0;1.369;1.326;0.981;RL35051445;20443208;-;0;0;l
624;11425200;Reckenberg;Ostrach;127.0;768;4345391;2710166;DEU;BAV;Danube above Inn;1981;1970;0;0.000;0.000;0.995;RL35052613;20441182;-;0;0;l
625;11438015;Immenstadt_Konstanzer Ach;Konstanzer Ach;67.0;716;4338368;2716829;DEU;BAV;Danube above Inn;2009;2009;0;112.987;112.974;0.959;RL35053451;20439013;C;0;0;m
626;11548007;Roth_Roth;Roth;169.0;476;4332211;2806246;DEU;BAV;Danube above Inn;1981;1978;0;0.000;0.000;1.005;RL35115698;20415341;-;0;0;l
627;11582300;Lauben_Guenz;Guenz;315.4;571;4343334;2773169;DEU;BAV;Danube above Inn;1981;1976;0;0.916;0.913;0.995;RL35114054;20424215;-;0;0;l
628;11584000;Waldstetten;Guenz;596.2;470;4343404;2804368;DEU;BAV;Danube above Inn;1981;1970;0;0.000;0.000;0.999;RL35115783;20416136;A;0;0;s
629;11609000;Offingen;Mindel;951.9;430;4349133;2819201;DEU;BAV;Danube above Inn;1981;1970;0;0.931;0.928;0.995;RL35116317;20412617;-;0;0;l
630;11723504;Baechingen;Brenz;809.8;435;4344547;2826044;DEU;BAV;Danube above Inn;1981;1979;0;0.000;0.000;0.985;RL35116536;20410313;-;0;0;l
631;11805008;Gerolfingen;Woernitz;586.9;423;4358851;2881756;DEU;BAV;Danube above Inn;1981;1970;0;0.111;0.108;0.995;RL35119035;20397408;-;0;0;l
632;11809009;Harburg;Woernitz;1569.5;401;4371899;2852454;DEU;BAV;Danube above Inn;1981;1970;0;0.074;0.071;0.999;RL35117777;20404551;-;0;0;l
633;11864007;Lierheim;Eger;395.2;405;4365235;2855210;DEU;BAV;Danube above Inn;1981;1976;0;0.836;0.832;1.025;RL35117780;20403420;G;0;0;m
634;11924007;Pfaffenhofen_Zusam;Zusam;504.1;407;4373937;2833066;DEU;BAV;Danube above Inn;1981;1970;0;0.900;0.897;1.016;RL35117146;20409317;-;0;0;l
635;11944004;Achsheim;Schmutter;359.1;438;4382175;2820203;DEU;BAV;Danube above Inn;1981;1970;0;0.000;0.000;0.976;RL35116391;20413804;-;0;0;l
636;12002009;Lechbruck;Lech;1703.4;722;4380929;2731941;DEU;BAV;Danube above Inn;1981;1970;0;0.000;0.000;0.999;RL35055179;20435073;A;1;0;s
637;12003001;Landsberg;Lech;2282.6;582;4386275;2770158;DEU;BAV;Danube above Inn;1981;1970;0;0.000;0.000;1.007;RL35113967;20424940;A;1;0;s
638;12003500;Haunstetten_Lech;Lech;2347.3;492;4391183;2800795;DEU;BAV;Danube above Inn;1981;1975;0;6.194;6.191;1.122;RL35115347;20418301;A;1;0;s
639;12006000;Augsburg uh Wertach;Lech;3791.3;457;4386772;2810784;DEU;BAV;Danube above Inn;1981;1970;0;0.000;0.000;1.049;RL35115856;20414383;A;1;0;s
640;12183005;Pfronten Ried;Vils;112.7;856;4362964;2718724;DEU;BAV;Danube above Inn;1981;1970;0;5.035;5.032;1.005;RL35053652;20440707;A;1;0;s
641;12402007;Sebastianskapelle;Wertach;60.6;884;4352839;2721006;DEU;BAV;Danube above Inn;1981;1970;0;0.592;0.589;0.985;RL35053945;20437900;-;0;0;l
642;12405005;Biessenhofen;Wertach;451.0;694;4369165;2746067;DEU;BAV;Danube above Inn;1981;1970;0;2.109;2.106;0.990;RL35056512;20431546;A;0;0;s
643;12406008;Tuerkheim;Wertach;666.4;591;4369606;2772404;DEU;BAV;Danube above Inn;1981;1970;0;0.145;0.142;0.993;RL35114306;20427125;A;0;0;s
644;12425002;Leuterschach;Lobach;109.2;736;4364764;2737341;DEU;BAV;Danube above Inn;1981;1970;0;0.176;0.173;1.018;RL35055803;20433638;-;0;0;l
645;12445000;Hoermanshofen;Geltnach;94.1;697;4369938;2746082;DEU;BAV;Danube above Inn;1981;1970;0;2.072;2.069;0.993;RL35056532;20432248;-;0;0;l
646;13201000;Mering;Paar;156.3;505;4394228;2796018;DEU;BAV;Danube above Inn;1984;1984;0;0.083;0.079;0.980;RL35115272;20418419;B;0;0;m
647;13206004;Muehlried;Paar;693.2;403;4415656;2829785;DEU;BAV;Danube above Inn;1981;1970;0;0.250;0.247;1.003;RL35116674;20409836;B;0;0;m
648;13208000;Manching (Ort);Paar;852.4;361;4430944;2846042;DEU;BAV;Danube above Inn;1981;1970;0;0.117;0.099;1.016;RL35117409;20407583;B;0;0;m
649;13322005;Aunkofen;Abens;368.3;358;4455470;2857587;DEU;BAV;Danube above Inn;1981;1970;0;0.000;0.000;1.012;RL35117894;20403518;-;0;0;l
650;13325502;Geisenfeld;Ilm;455.9;371;4440122;2842381;DEU;BAV;Danube above Inn;1987;1987;0;0.000;0.000;1.012;RL35117190;20406547;-;0;0;l
651;13402807;Thann;Altmuehl;326.6;416;4360694;2899423;DEU;BAV;Danube above Inn;1981;1970;0;0.959;0.956;0.985;RL35119802;20393217;-;0;0;l
652;13406105;Treuchtlingen;Altmuehl;886.3;406;4387926;2871521;DEU;BAV;Danube above Inn;1981;1970;0;0.996;0.993;1.008;RL35118434;20399442;A,E;0;0;s
653;13407902;Beilngries o.d.Sulz_Altmuehl;Altmuehl;2266.0;363;4429123;2880552;DEU;BAV;Danube above Inn;1984;1984;0;0.330;0.327;0.983;RL35118888;20398347;A,E;0;0;m
654;13465002;Mettendorf;Schwarzach;295.3;380;4420870;2880560;DEU;BAV;Danube above Inn;1981;1970;0;0.250;0.247;1.019;RL35118950;20398025;-;0;0;l
655;13926207;Deuerling;Schwarze Laber;423.3;372;4461030;2881229;DEU;BAV;Danube above Inn;1981;1970;0;0.099;0.096;1.016;RL35118983;20398897;-;1;0;s
656;14002305;Unterkoeblitz;Naab;2013.6;370;4476915;2938151;DEU;BAV;Danube above Inn;1981;1970;0;5.482;5.479;0.991;RL35120890;20384802;-;0;0;l
657;14006000;Muenchshofen;Naab;4009.3;344;4472794;2904479;DEU;BAV;Danube above Inn;1981;1970;0;0.848;0.845;0.995;RL35120016;20392189;A;1;0;s
658;14008006;Heitzenhofen;Naab;5433.7;334;4462347;2891285;DEU;BAV;Danube above Inn;1981;1970;0;3.956;3.947;0.991;RL35119459;20396562;A;1;0;s
659;14101205;Windischeschenbach;Waldnaab;587.3;415;4476859;2967310;DEU;BAV;Danube above Inn;1981;1970;0;8.315;8.312;0.993;RL35121377;20379235;A;0;0;m
660;14106504;Weiden_Waldnaab;Waldnaab;915.0;389;4477379;2953081;DEU;BAV;Danube above Inn;2007;2007;0;5.988;5.267;0.992;RL35121172;20381781;A,E;0;0;m
661;14124007;Erbendorf;Fichtelnaab;181.7;457;4469399;2971310;DEU;BAV;Danube above Inn;1981;1970;0;1.036;1.033;0.982;RL35121452;20377698;-;0;0;l
662;14209008;Wildenau;Haidenaab;721.9;380;4474823;2946183;DEU;BAV;Danube above Inn;1981;1970;0;1.921;1.918;0.987;RL35121004;20383244;-;0;0;l
663;14405200;Roetz Speicherzufluss;Schwarzach;398.3;441;4503793;2916935;DEU;BAV;Danube above Inn;1981;1970;0;2.010;2.007;1.000;RL35120483;20389650;A;0;0;s
664;14408004;Warnbach;Schwarzach;819.8;363;4481470;2923693;DEU;BAV;Danube above Inn;1981;1970;0;2.917;2.914;1.002;RL35120666;20388336;A;0;0;s
665;14604002;Amberg_Vils;Vils;438.3;371;4455509;2927839;DEU;BAV;Danube above Inn;1981;1970;0;0.000;0.000;0.956;RL35120782;20387056;-;1;0;s
666;14608003;Dietldorf;Vils;1100.9;343;4462635;2900434;DEU;BAV;Danube above Inn;1981;1970;0;0.000;0.000;0.981;RL35120141;20393664;-;0;0;l
667;15202300;Chamerau;Regen;1356.1;371;4521224;2900224;DEU;BAV;Danube above Inn;1981;1970;0;12.086;12.083;0.994;RL35119846;20394273;A;0;0;s
668;15205501;Kienhof;Regen;2177.3;354;4502887;2900516;DEU;BAV;Danube above Inn;1981;1970;0;8.084;8.078;0.999;RL35119823;20393776;A;0;0;m
669;15207507;Marienthal;Regen;2613.4;337;4479425;2903426;DEU;BAV;Danube above Inn;1981;1970;0;11.457;11.436;1.001;RL35119933;20394360;A,J;0;0;m
670;15210206;Zwiesel_Schwarzer Regen;Schwarzer Regen;293.9;553;4556612;2882582;DEU;BAV;Danube above Inn;1981;1974;0;1.480;1.477;1.010;RL35119027;20398351;A;0;0;m
671;15212700;Saegmuehle;Schwarzer Regen;833.6;405;4534348;2888459;DEU;BAV;Danube above Inn;1981;1975;0;16.242;16.239;1.003;RL35119312;20396802;A;0;0;m
672;15228008;Koetzting;Weisser Regen;230.4;392;4529057;2899109;DEU;BAV;Danube above Inn;1981;1970;0;0.925;0.922;1.014;RL35119782;20394275;-;0;0;l
673;15243001;Furth im Wald;Chamb;280.1;388;4527279;2913887;DEU;BAV;Danube above Inn;1981;1970;0;1.952;1.933;1.013;RL35120384;20391784;A;0;0;s
674;15408000;Schoenach;Grosse Laber;402.6;324;4498788;2869844;DEU;BAV;Danube above Inn;1981;1970;0;1.070;1.067;1.005;RL35118356;20401904;-;0;0;l
675;16000708;Mittenwald_Isar;Isar;401.7;903;4416913;2704126;DEU;BAV;Danube above Inn;1981;1970;0;71.457;71.454;1.009;RL35051939;20442729;-;0;0;l
676;16001303;Rissbachdueker;Isar;523.9;788;4427798;2716556;DEU;BAV;Danube above Inn;1981;1980;0;13.057;13.054;1.033;RL35053461;20440342;A,E;0;0;s
677;16004006;Bad Toelz KW;Isar;1453.5;632;4436473;2741804;DEU;BAV;Danube above Inn;1981;1970;0;0.404;0.401;1.060;RL35056105;20432869;A,E;0;0;s
678;16005701;Muenchen_Isar;Isar;2838.4;500;4439873;2782596;DEU;BAV;Danube above Inn;1981;1970;0;0.179;0.176;1.018;RL35114557;20421919;A,E;0;0;s
679;16006500;Freising_Isar;Isar;3067.0;440;4450791;2810949;DEU;BAV;Danube above Inn;1981;1970;0;0.120;0.117;1.148;RL35115926;20414730;A,E;1;0;s
680;16007004;Landshut Birket;Isar;7917.8;389;4478614;2826074;DEU;BAV;Danube above Inn;1981;1970;0;0.111;0.108;1.017;RL35116526;20411024;A,E;1;0;s
681;16008506;Plattling;Isar mit Muehlbaechen;8612.8;316;4532969;2854991;DEU;BAV;Danube above Inn;1981;1970;0;0.074;0.071;1.039;RL35117822;20404345;A,E;1;0;s
682;16401006;Garmisch oh Partnach;Loisach;248.6;712;4401182;2708330;DEU;BAV;Danube above Inn;1981;1970;0;27.536;27.533;1.006;RL35052400;20441288;D;0;0;l
683;16402009;Garmisch uh Partnach;Loisach;393.6;687;4403043;2710448;DEU;BAV;Danube above Inn;1981;1970;0;47.139;47.136;1.023;RL35052810;20440708;D;0;0;l
684;16404900;Schlehdorf;Loisach;638.1;600;4420563;2729099;DEU;BAV;Danube above Inn;1981;1970;0;3.382;3.379;1.023;RL35055016;20436321;-;0;0;l
685;16407002;Kochel;Loisach;786.6;596;4423425;2728959;DEU;BAV;Danube above Inn;1981;1970;0;0.111;0.108;0.890;RL35054866;20434695;A,I;1;0;s
686;16408504;Beuerberg_Loisach;Loisach;1051.1;578;4426981;2747860;DEU;BAV;Danube above Inn;1981;1970;0;0.111;0.108;0.915;RL35056878;20431411;A,I;1;0;s
687;16425004;Partenkirchen_Partnach;Partnach;96.2;730;4405114;2708024;DEU;BAV;Danube above Inn;1981;1970;0;0.129;0.108;0.991;RL35052513;20441837;-;0;0;l
688;16602303;Stegen_Amper;Amper;993.4;532;4405180;2774591;DEU;BAV;Danube above Inn;1981;1970;0;0.120;0.117;1.008;RL35114134;20424721;D;0;0;l
689;16605006;Fuerstenfeldbruck;Amper;1230.3;514;4414849;2785635;DEU;BAV;Danube above Inn;1981;1970;0;0.111;0.108;1.022;RL35114682;20420818;D;0;0;l
690;16606009;Ampermoching;Amper;2212.9;464;4431734;2799300;DEU;BAV;Danube above Inn;1984;1984;0;0.124;0.120;1.021;RL35115269;20417503;E;0;0;m
691;16607001;Inkofen;Amper;3097.2;416;4459007;2818102;DEU;BAV;Danube above Inn;1981;1970;0;0.111;0.108;1.010;RL35116192;20412867;E;0;0;m
692;16610709;Oberammergau;Ammer;114.8;831;4401080;2720682;DEU;BAV;Danube above Inn;1981;1970;0;8.766;8.763;0.975;RL35053975;20438129;-;0;0;l
693;16612001;Peissenberg;Ammer;298.8;592;4400286;2741084;DEU;BAV;Danube above Inn;1981;1970;0;6.055;6.052;0.988;RL35056097;20436042;-;0;0;l
694;16613004;Weilheim;Ammer;608.0;550;4405994;2748822;DEU;BAV;Danube above Inn;1981;1970;0;0.111;0.108;1.005;RL35056705;20430332;-;0;0;l
695;16618008;Oberhausen;Ach;116.1;585;4405239;2739990;DEU;BAV;Danube above Inn;1981;1970;0;5.303;5.291;0.987;RL35056116;20433640;D;0;0;l
696;16646400;Eching;Windach;128.0;533;4404083;2774507;DEU;BAV;Danube above Inn;2013;2013;0;16.840;16.817;0.999;RL35114137;20424102;A;0;0;s
697;16665008;Leutstetten;Wuerm;326.6;583;4422710;2769339;DEU;BAV;Danube above Inn;1981;1970;0;0.120;0.117;0.984;RL35113907;20425626;D;0;0;l
698;16686008;Hohenkammer;Glonn;390.4;447;4433982;2813735;DEU;BAV;Danube above Inn;1981;1970;0;0.120;0.117;1.000;RL35115991;20414848;-;0;0;l
699;16825002;Appolding;Strogen;135.7;422;4467796;2813029;DEU;BAV;Danube above Inn;1981;1970;0;0.308;0.305;0.985;RL35115904;20415477;-;0;0;l
700;17201501;Aham;Vils;564.1;416;4503639;2826838;DEU;BAV;Danube above Inn;1981;1970;0;0.866;0.863;0.986;RL35116600;20411026;-;0;0;l
701;17204204;Rottersdorf;Vils;729.1;375;4519684;2836169;DEU;BAV;Danube above Inn;1981;1970;0;0.111;0.108;0.982;RL35116932;20409321;B;0;0;m
702;17207508;Grafenmuehle;Vils;1439.5;308;4552968;2837998;DEU;BAV;Danube above Inn;1981;1956;0;0.265;0.244;0.989;RL35117040;20408503;B;0;0;m
703;17215007;Vilsbiburg;Grosse Vils;320.3;436;4496021;2818335;DEU;BAV;Danube above Inn;1981;1970;0;0.111;0.108;0.983;RL35116389;20413124;-;0;0;l
704;17225000;Dietelskirchen;Kleine Vils;146.1;439;4494277;2823018;DEU;BAV;Danube above Inn;1981;1970;0;3.536;3.533;0.970;RL35116396;20411909;-;0;0;l
705;17245507;Bruckhaeuser_Kollbach;Kollbach;273.7;334;4539017;2837382;DEU;BAV;Danube above Inn;2002;2002;0;3.023;2.907;1.000;RL35116965;20408831;E;0;0;s
706;17345002;Hoermannsberg;Gaissa;211.4;309;4569645;2840692;DEU;BAV;Danube above Inn;1981;1970;0;4.458;4.455;1.008;RL35117113;20408834;-;0;0;l
707;17404000;Schrottenbaummuehle;Ilz;364.4;350;4573980;2852348;DEU;BAV;Danube above Inn;1981;1970;0;6.601;6.598;0.995;RL35117681;20405709;A;0;0;m
708;17406005;Kalteneck;Ilz;761.6;326;4575132;2847659;DEU;BAV;Danube above Inn;1981;1970;0;2.735;2.732;1.000;RL35117485;20406991;A;0;0;m
709;17464001;Fuersteneck;Wolfsteiner Ohe;371.2;349;4576170;2851036;DEU;BAV;Danube above Inn;1981;1970;0;7.982;7.979;1.020;RL35117621;20405710;-;0;0;l
710;18000403;Oberaudorf_Inn;Inn;9713.2;464;4486109;2728052;DEU;BAV;Inn above Salzach;1981;1970;0;0.083;0.071;1.001;RL35054775;20436698;A;1;0;s
711;18001508;Rosenheim o.d. Mangfall;Inn;10153.5;440;4481477;2751268;DEU;BAV;Inn above Salzach;1981;1970;0;0.000;0.000;1.001;RL35056816;20430578;A;1;0;s
712;18003004;Wasserburg;Inn;11960.4;420;4487597;2774267;DEU;BAV;Inn above Salzach;1981;1970;0;0.074;0.071;0.997;RL35114271;20424103;A;1;0;s
713;18005000;Eschelbach_Inn;Inn;13320.5;356;4523748;2797269;DEU;BAV;Inn above Salzach;1981;1970;0;0.000;0.000;0.998;RL35115176;20418691;A;1;0;s
714;18008008;Passau Ingling;Inn;26040.0;289;4575211;2833497;DEU;BAV;Inn under Salzach;1981;1970;0;0.074;0.071;0.998;RL35116851;20412137;A;1;0;s
715;18204006;Feldolling;Mangfall;745.0;531;4459584;2754965;DEU;BAV;Inn above Salzach;1981;1970;0;6.182;6.179;0.943;RL35057009;20429328;E;0;0;s
716;18205985;Bad Aibling Willinger Bruecke;Mangfall;776.2;477;4470277;2751386;DEU;BAV;Inn above Salzach;2009;2009;0;0.335;0.321;0.987;RL35056844;20430452;A;0;0;s
717;18209000;Rosenheim_Mangfall;Mangfall;1094.6;443;4480151;2750193;DEU;BAV;Inn above Salzach;1981;1970;0;2.553;2.550;0.985;RL35056725;20430577;A,E;0;0;s
718;18212004;Oberach;Weissach;96.0;743;4453750;2730656;DEU;BAV;Inn above Salzach;1981;1970;0;1.841;1.838;1.005;RL35055022;20435928;-;0;0;l
719;18346000;Anger;Attel;249.6;435;4481271;2770139;DEU;BAV;Inn above Salzach;1981;1970;0;0.900;0.897;0.985;RL35114030;20425301;-;0;0;l
720;18384509;Engfurt;Isen;548.4;385;4514948;2799810;DEU;BAV;Inn above Salzach;1981;1970;0;2.020;2.016;0.970;RL35115285;20417944;-;0;0;l
721;18403002;Seebruck;Alz;1395.0;517;4506383;2760979;DEU;BAV;Inn above Salzach;1981;1970;0;0.111;0.108;1.012;RL35057344;20428465;D;0;0;l
722;18407003;Trostberg_Alz;Alz;1957.3;476;4511648;2771465;DEU;BAV;Inn above Salzach;1981;1970;0;0.120;0.117;0.998;RL35114257;20425870;E;0;0;s
723;18454003;Staudach;Tiroler Achen;944.7;532;4506592;2743972;DEU;BAV;Inn above Salzach;1981;1970;0;0.120;0.117;0.997;RL35056456;20433118;-;0;0;l
724;18481006;Hochberg;Traun;273.2;595;4519165;2750161;DEU;BAV;Inn above Salzach;1981;1970;0;0.120;0.117;0.997;RL35056911;20431074;-;0;0;l
725;18486000;Siegsdorf;Weisse Traun;179.9;599;4519138;2749317;DEU;BAV;Inn above Salzach;1981;1970;0;0.111;0.108;1.009;RL35056717;20432768;-;0;0;l
726;18487501;Wernleiten;Rote Traun;92.6;598;4519434;2749719;DEU;BAV;Inn above Salzach;1981;1970;0;0.792;0.780;0.967;RL35056718;20431299;-;0;0;l
727;18602009;Laufen S. Keller;Salzach;6118.8;387;4540170;2762797;DEU;BAV;Salzach;1981;1970;0;0.111;0.108;;;;A,E,I;1;0;x
728;18606000;Burghausen;Salzach;6655.1;352;4531908;2786834;DEU;BAV;Salzach;1981;1970;0;0.111;0.108;1.004;RL35114838;20421526;A,E,I;1;0;s
729;18620500;Berchtesgaden KA;Berchtesgadener Ache;358.5;516;4548900;2730465;DEU;BAV;Salzach;1981;1970;0;0.111;0.108;1.012;RL35055049;20436801;C;0;0;m
730;18642003;Unterjettenberg;Saalach;940.6;494;4533022;2733774;DEU;BAV;Salzach;1981;1970;0;0.120;0.117;1.014;RL35055416;20435432;A;1;0;s
731;18666001;Brodhausen;Sur;120.5;420;4541553;2752567;DEU;BAV;Salzach;1981;1970;0;0.111;0.108;0.978;RL35056951;20430711;A;0;0;s
732;18803805;Linden_Rott;Rott;529.0;386;4530703;2814959;DEU;BAV;Inn under Salzach;1981;1970;0;0.120;0.117;0.989;RL35116018;20414131;B;0;0;m
733;18806406;Birnbach;Rott;860.0;347;4548378;2818332;DEU;BAV;Inn under Salzach;1981;1970;0;0.123;0.117;0.986;RL35116182;20413564;A;0;0;s
734;19145208;Erlachleiten;Erlau;216.3;298;4585123;2835741;DEU;BAV;Danube between Inn and Traun;2008;2008;0;28.479;28.466;1.002;RL35126231;20409953;A;0;0;s
735;105;Kirchen-Hausen;Donau;758.5;657;4222272;2757762;DEU;BWT;Danube above Inn;1981;1970;0;0.000;0.000;1.001;RL35057202;20428463;A,B,G;0;0;m
736;106;Moehringen;Donau;827.0;649;4228335;2760264;DEU;BWT;Danube above Inn;1981;1970;0;21.111;20.987;0.995;RL35057363;20428052;A,B,E,L;0;0;s
737;120;Hundersingen;Donau;2621.3;543;4275973;2773395;DEU;BWT;Danube above Inn;1981;1970;0;0.000;0.000;0.985;RL35114062;20423962;L;0;0;m
738;125;Berg;Donau;4072.8;490;4301053;2794787;DEU;BWT;Danube above Inn;1981;1970;0;0.000;0.000;0.985;RL35115023;20418417;L;0;0;m
739;129;Achstetten;Baierzer Rot;264.4;489;4313632;2794441;DEU;BWT;Danube above Inn;1981;1970;0;0.000;0.000;0.996;RL35115026;20420476;B;0;0;m
740;139;Urach;Urach;17.5;808;4194304;2766772;DEU;BWT;Danube above Inn;1981;1970;0;0.000;0.000;0.960;RL35057732;20426121;-;0;0;l
741;144;Lauben;Aitrach;308.5;623;4323813;2751446;DEU;BWT;Danube above Inn;1981;1970;0;0.000;0.000;1.004;RL35057070;20430217;-;0;0;l
742;151;Burgberg-Oberer Steg;Huerbe;321.4;451;4337760;2829977;DEU;BWT;Danube above Inn;1981;1973;0;0.000;0.000;1.002;RL35116690;20410312;-;0;0;l
743;162;Gammertingen;Lauchert;168.9;654;4263350;2792589;DEU;BWT;Danube above Inn;1981;1970;0;0.000;0.000;0.914;RL35115104;20419569;D;0;0;l
744;168;Beuron;Donau;1310.4;605;4244515;2771572;DEU;BWT;Danube above Inn;1981;1972;0;0.000;0.000;0.980;RL35057876;20425619;L;0;0;s
745;172;Wimsen;Zwiefalter Ach;0.2;557;4280011;2793866;DEU;BWT;Danube above Inn;1981;1970;0;0.000;0.000;;;;M;0;0;x
746;173;Ummendorf;Umlach;87.9;535;4307457;2773456;DEU;BWT;Danube above Inn;1981;1973;0;0.000;0.000;1.005;RL35057914;20425623;-;0;0;l
747;177;Binnrot;Rot;129.1;566;4324616;2772612;DEU;BWT;Danube above Inn;1981;1970;0;0.000;0.000;1.056;RL35057918;20425397;B;0;0;m
748;192;Tuttlingen;Elta;80.7;646;4231059;2764600;DEU;BWT;Danube above Inn;1981;1970;0;0.000;0.000;1.018;RL35057610;20426516;-;0;0;l
749;194;Moehringen-Espenbruecke;Donau;862.6;645;4229586;2761314;DEU;BWT;Danube above Inn;1981;1973;0;0.000;0.000;0.995;RL35057409;20427257;A,B,L;0;0;s
750;196;Maegerkingen;Lauchert;91.7;679;4261410;2798161;DEU;BWT;Danube above Inn;1981;1973;0;19.464;19.461;1.016;RL35115412;20417708;-;0;0;l
751;1101;Laupheim;Duernach;94.0;496;4310676;2791836;DEU;BWT;Danube above Inn;1981;1974;0;0.000;0.000;1.008;RL35114943;20421049;G;0;0;m
752;1109;Maria Tann;Kirnach;29.8;753;4200971;2774606;DEU;BWT;Danube above Inn;1981;1977;0;173.203;173.151;1.001;RL35114148;20423834;A;1;0;s
753;1111;Reichenhofen;Wurzacher Ach;152.5;636;4318533;2748163;DEU;BWT;Danube above Inn;1981;1979;0;0.000;0.000;1.000;RL35056695;20430573;-;0;0;l
754;1118;Koenigsbronn;Leerausbach;23.9;497;4329485;2847215;DEU;BWT;Danube above Inn;1981;1981;0;0.013;0.000;1.011;RL35117483;20405927;-;0;0;l
755;1120;Unterschmeien;Schmeie;145.2;591;4257632;2775712;DEU;BWT;Danube above Inn;1981;1981;0;0.031;0.025;1.001;RL35114360;20423589;-;1;0;s
756;1122;Breitingen;Lone;107.0;524;4320099;2822258;DEU;BWT;Danube above Inn;1981;1979;0;0.000;0.000;0.995;RL35116376;20411326;-;0;0;l
757;1131;Laucherthal;Lauchert;451.6;576;4266995;2774728;DEU;BWT;Danube above Inn;1981;1976;0;0.000;0.000;0.981;RL35114232;20424093;-;0;0;l
758;1137;Lontal;Lone;316.5;452;4336727;2829583;DEU;BWT;Danube above Inn;1981;1977;0;0.188;0.160;0.992;RL35116690;;-;0;0;l
759;1139;Hammereisenbach;Breg;158.0;738;4198040;2765389;DEU;BWT;Danube above Inn;1981;1976;0;0.000;0.000;1.008;RL35057666;20426872;A;0;0;m
760;1140;Donaueschingen;Brigach;192.7;676;4208197;2761403;DEU;BWT;Danube above Inn;1981;1981;0;0.000;0.000;0.921;RL35057791;20427640;A;1;0;s
761;1144;Niederkirch;Riss;409.1;495;4308457;2791690;DEU;BWT;Danube above Inn;1981;1976;0;0.000;0.000;0.976;RL35115094;20419119;G;0;0;m
762;1145;Laupheim;Rottum;134.6;493;4311250;2792401;DEU;BWT;Danube above Inn;1981;1976;0;0.000;0.000;0.982;RL35114944;20423841;-;0;0;l
763;1150;Ertingen;Schwarzach;121.8;535;4280001;2776656;DEU;BWT;Danube above Inn;1982;1982;0;0.000;0.000;0.976;RL35114231;20424824;G;0;0;m
764;1151;Menningen;Ablach;199.9;591;4258575;2766171;DEU;BWT;Danube above Inn;1981;1976;0;0.000;0.000;1.016;RL35057670;20425995;-;0;0;l
765;1155;Koenigsbronn;Brenz;0.3;497;4329480;2847198;DEU;BWT;Danube above Inn;1981;1976;0;0.000;0.000;;;;M;1;0;x
766;1156;Fridingen;Baera;131.8;630;4242157;2769568;DEU;BWT;Danube above Inn;1981;1976;0;0.000;0.000;0.998;RL35114234;20425173;-;0;0;l
767;1159;Mengen (Add.);Ablach;423.0;564;4268883;2769641;DEU;BWT;Danube above Inn;1984;1984;0;0.000;0.000;1.005;RL35113926;20424939;K;0;0;m
768;1161;Warthausen;Riss;307.2;517;4305720;2782043;DEU;BWT;Danube above Inn;1981;1976;0;0.000;0.000;0.982;RL35114491;20422408;-;0;0;l
769;1162;Goppertshofen;Rottum;57.2;563;4316760;2774820;DEU;BWT;Danube above Inn;1981;1976;0;0.025;0.022;1.043;RL35114944;;-;0;0;l
770;1165;Unterstadion;Stehenbach;79.7;501;4297319;2788569;DEU;BWT;Danube above Inn;1982;1982;0;0.010;0.000;1.014;RL35114709;20419964;-;0;0;l
771;1166;Unterlinach;Linach;9.7;848;4192433;2769096;DEU;BWT;Danube above Inn;1981;1976;0;0.000;0.000;1.007;RL35113917;20425508;-;0;0;l
772;1168;Hirschbronn-Zulauf;Oelbach;24.7;628;4318506;2764102;DEU;BWT;Danube above Inn;1988;1988;0;0.000;0.000;0.930;RL35149605;20426878;-;0;0;l
773;1169;Spindelwag-Zulauf;Pfaffenrieder Bach;29.5;632;4319906;2762656;DEU;BWT;Danube above Inn;1989;1989;0;0.012;0.000;1.024;RL35057478;20426776;-;0;0;l
774;1170;Kunenberg;Rappenbach;7.2;652;4324121;2759800;DEU;BWT;Danube above Inn;1994;1994;0;0.000;0.000;1.031;RL35057329;20427495;-;0;0;l
775;1173;Hermentingen (Add.);Gallusquelle;0.0;633;4262599;2787697;DEU;BWT;Danube above Inn;1981;1976;0;0.247;0.244;;;;M;0;0;x
776;1174;Jettkofen;Ostrach;95.7;598;4273611;2761833;DEU;BWT;Danube above Inn;1992;1992;0;0.000;0.000;1.029;RL35057547;20427494;-;0;0;l
777;1175;Haefeliswald;Kuernach;19.8;767;4330501;2737179;DEU;BWT;Danube above Inn;1988;1988;0;0.000;0.000;0.961;RL35055728;20433887;-;0;0;u
778;1177;Bittelschiess;Andelsbach;144.0;587;4264080;2765609;DEU;BWT;Danube above Inn;1998;1998;0;8.433;8.427;0.998;RL35057783;20425863;D;0;0;l
779;1178;Schmiddis;Schmiddisbach;6.3;651;4324632;2759438;DEU;BWT;Danube above Inn;1994;1994;0;0.000;0.000;1.007;RL35057312;;-;0;0;l
780;1181;Donaueschingen;Breg;291.1;678;4208916;2759137;DEU;BWT;Danube above Inn;1990;1990;0;0.000;0.000;1.032;RL35057350;20428171;A,B;0;0;m
781;1183;Donaueschingen;Donau;524.7;672;4210606;2760897;DEU;BWT;Danube above Inn;1993;1993;0;980.071;979.967;;;;A,B;0;0;x
782;16473;Moehringen;Kraehenbach;28.1;655;4228835;2761850;DEU;BWT;Danube above Inn;1981;1976;0;0.000;0.000;0.963;RL35057482;;B;0;0;m
783;16475;Nibelhoefe;Eschach;131.6;631;4323149;2749555;DEU;BWT;Danube above Inn;1981;1978;0;0.000;0.000;0.991;RL35056758;20431542;B;0;0;m
784;16477;Unterkirchberg;Weihung;70.2;479;4321205;2802780;DEU;BWT;Danube above Inn;1981;1976;0;0.000;0.000;1.004;RL35115597;20417371;-;0;0;l
785;17095;Friesenhofen;Eschach;59.5;709;4325886;2738840;DEU;BWT;Danube above Inn;1996;1996;0;0.000;0.000;1.021;RL35055895;20433379;-;0;0;l
786;39399;Blaubeuren;Ach;155.7;517;4304529;2809997;DEU;BWT;Danube above Inn;1981;1976;0;0.000;0.000;0.998;RL35115822;20414618;-;0;0;l
787;47834;Lauterach;Grosse Lauter;325.0;515;4289789;2793685;DEU;BWT;Danube above Inn;1981;1976;0;11.177;11.174;1.006;RL35114963;20418908;G;0;0;m
788;47840;Unlingen;Kanzach;150.0;527;4285464;2783556;DEU;BWT;Danube above Inn;1981;1976;0;6.811;6.808;1.036;RL35114511;20422647;-;0;0;l
789;76175;Ulm;Blau;489.7;477;4318393;2809464;DEU;BWT;Danube above Inn;1990;1990;0;54.926;54.918;0.992;RL35115734;20414619;-;0;0;l
790;76176;Bopfingen;Eger;106.5;458;4346785;2861075;DEU;BWT;Danube above Inn;2003;2003;0;0.015;0.000;1.004;RL35118080;20402651;E,M;0;0;s
791;76184;Ehingen-Berkach;Schmiech;167.7;506;4300401;2798490;DEU;BWT;Danube above Inn;2008;2008;0;0.000;0.000;1.001;RL35115507;20417496;-;0;0;l
792;76185;Villingen;Brigach;101.4;700;4206491;2772754;DEU;BWT;Danube above Inn;1981;1976;0;0.000;0.000;0.981;RL35114116;20424332;A;1;0;s
793;76266;Rot an der Rot;Haslach;40.4;607;4324144;2765111;DEU;BWT;Danube above Inn;2006;2006;0;0.000;0.000;0.988;RL35057723;20426262;B;0;0;m
794;76273;Blaubeuren;Blautopf;0.0;512;4304980;2811435;DEU;BWT;Danube above Inn;1981;1976;0;0.025;0.000;;;;M;0;0;x
795;76276;Bolheim;Brenz;339.8;473;4332390;2835208;DEU;BWT;Danube above Inn;1981;1976;0;0.000;0.000;0.998;RL35116893;20408275;-;0;0;l
796;76290;Schweinhausen;Riss;101.6;541;4305129;2769259;DEU;BWT;Danube above Inn;1981;1979;0;0.000;0.000;0.968;RL35114073;20425176;-;0;0;l
797;2430;Sumvitg Encardens;Rein da Sumvitg;21.8;1490;4243666;2615693;CHE;GRI;Rhine;1981;1977;0;0.000;0.000;0.983;RL26003882;20464833;-;0;1;u
798;2033;Ilanz;Vorderrhein;774.0;693;4260331;2629477;CHE;GRI;Rhine;1981;1974;0;0.000;0.000;1.000;RL26004598;20460637;A;1;0;s
799;2498;Castrisch;Glenner;381.0;696;4260655;2629227;CHE;GRI;Rhine;1988;1988;0;0.000;0.000;1.009;RL26004599;20461515;E;0;0;s
800;2631;Hinterrhein Schiessplatz;Hinterrhein;41.5;1616;4258116;2601473;CHE;GRI;Rhine;2009;2009;0;0.000;0.000;1.014;RL26003357;20467223;-;0;1;l
801;2327;Davos Kriegsmatte;Dischmabach;42.9;1668;4311617;2629122;CHE;GRI;Rhine;1981;1974;0;0.000;0.000;1.000;RL26004726;20461429;-;0;1;u
802;2355;Davos Frauenkirch;Landwasser;184.0;1487;4304964;2627170;CHE;GRI;Rhine;1981;1974;0;0.000;0.000;0.999;RL26004484;20461169;E;0;0;s
803;2141;Tiefencastel;Albula;529.0;837;4288375;2616665;CHE;GRI;Rhine;1981;1974;0;0.000;0.000;0.998;RL26003893;20463578;A,E;1;0;s
804;2418;Tiefencastel;Julia;325.0;845;4288517;2616426;CHE;GRI;Rhine;1981;1976;0;0.000;0.000;0.985;RL26003892;20463803;E;0;0;s
805;2387;Fuerstenau;Hinterrhein;1577.0;650;4278704;2622566;CHE;GRI;Rhine;1981;1974;0;0.000;0.000;1.006;RL26004209;20462188;A,E;1;0;s
806;2602;Domat/Ems;Rhein;3229.0;575;4279471;2636176;CHE;GRI;Rhine;1989;1989;0;0.000;0.000;1.001;RL26005006;20458880;A,E;1;0;s
807;185;Chur;Plessur;264.0;573;4283642;2638592;CHE;GRI;Rhine;1981;1974;0;0.000;0.000;1.013;RL26005135;20458969;A;1;0;s
808;2150;Felsenbach;Landquart;614.0;571;4291459;2651315;CHE;GRI;Rhine;1981;1981;0;0.000;0.000;0.996;RL26005831;20455948;A,I;1;0;s
809;2410;Ruggell;Liechtensteiner Binnenkanal;116.0;435;4284816;2681205;LIE;LIE;Rhine;1981;1975;0;0.000;0.000;0.982;RL26007142;;A,I,J;1;0;s
810;2187;Salez;Werdenberger Binnenkanal;183.0;432;4283842;2680652;CHE;STG;Rhine;1981;1974;0;0.000;0.000;0.994;RL26007412;20448447;-;0;0;l
811;2139;St. Margrethen;Rheint. Binnenkanal;175.0;404;4295023;2704084;CHE;STG;Rhine;1981;1974;0;0.000;0.000;0.964;RL26008132;20443077;G,J;0;0;m
812;2105;St. Moritzbad;Inn;155.0;1770;4308246;2596838;CHE;GRI;Inn above Salzach;1981;1974;0;0.000;0.000;1.002;RL35041554;20468394;C;0;0;m
813;2262;Pontresina;Berninabach;107.0;1804;4313791;2597016;CHE;GRI;Inn above Salzach;1981;1974;0;0.074;0.071;1.001;RL35041570;20468527;-;0;1;l
814;2256;Pontresina;Rosegbach;66.5;1766;4313157;2597411;CHE;GRI;Inn above Salzach;1981;1974;0;0.000;0.000;1.010;RL35041569;20470017;D;0;1;l
815;2263;La Punt-Chamues-ch;Chamuerabach;73.4;1720;4316085;2606216;CHE;GRI;Inn above Salzach;1981;1974;0;0.000;0.000;1.002;RL35041749;20466307;-;0;1;l
816;403;Cinuos-chel;Inn;733.0;1680;4322605;2613580;CHE;GRI;Inn above Salzach;1981;1974;0;0.000;0.000;1.004;RL35041897;20464498;A;1;1;s
817;2239;Punt dal Gall;Spoel;295.0;1680;4335924;2612808;CHE;GRI;Inn above Salzach;1981;1974;0;0.000;0.000;1.001;RL35041881;20464499;E,F;1;0;s
818;2304;Zernez Punt la Drossa;Ova dal Fuorn;55.3;1707;4335556;2615768;CHE;GRI;Inn above Salzach;1981;1974;0;0.000;0.000;1.009;RL35042012;20463808;-;0;0;l
819;2319;Zernez;Ova da Cluozza;27.0;1509;4330056;2619984;CHE;GRI;Inn above Salzach;1981;1974;0;0.000;0.000;1.006;RL35149571;20464042;-;0;0;l
820;2265;Tarasp;Inn;1581.0;1183;4342292;2630662;CHE;GRI;Inn above Salzach;1981;1974;0;0.000;0.000;1.003;RL35042865;20460279;A,E;0;1;s
821;2067;Martina;Inn;1941.0;1030;4356464;2641383;CHE;GRI;Inn above Salzach;1981;1974;0;0.000;0.000;1.000;RL35043726;20458405;A,E;1;0;s
822;2971;Vlaske;Morava;96.6;428;4814100;3020567;CZE;OLM;Morava;1981;2004;0;0.000;0.000;1.002;RL35133225;20371554;-;0;0;l
823;299;Jindrichov;Branna;90.3;446;4819716;3021806;CZE;OLM;Morava;1981;2004;0;0.000;0.000;1.009;RL35133239;20371809;-;0;0;l
824;301;Raskov;Morava;349.8;362;4815286;3015355;CZE;OLM;Morava;1981;2004;0;0.000;0.000;1.003;RL35133184;20373916;-;0;0;l
825;305;Sumperk;Desna;240.6;317;4822226;3007348;CZE;OLM;Morava;1981;2004;2010;0.037;0.019;1.031;RL35133133;20374629;A,E;0;0;s
826;309;Lupene;Moravska Sazava;445.2;385;4811891;2995596;CZE;OLM;Morava;1981;2004;0;0.000;0.000;1.004;RL35133009;20376803;K;0;0;m
827;310;Moravicany;Morava;1561.2;243;4822880;2984191;CZE;OLM;Morava;1981;2004;0;0.000;0.000;1.001;RL35132905;20379436;A,K;0;0;m
828;314;Lostice;Trebuvka;553.6;254;4819751;2982637;CZE;OLM;Morava;1981;2004;0;0.000;0.000;1.036;RL35132859;20379851;K;0;0;m
829;317;Olomouc - Nove Sady;Morava;3323.6;205;4845240;2966410;CZE;OLM;Morava;1981;2004;0;0.000;0.000;1.005;RL35132482;20384389;A,K;0;0;m
830;320;VD Karolinka;Stanovnice;23.1;476;4917967;2948703;CZE;ZLN;Morava;2008;2008;2010;0.076;0.038;1.017;RL35131788;20389889;A;0;0;s
831;322;Vsetin;Vsetinska Becva;505.8;336;4900105;2945878;CZE;ZLN;Morava;1981;2004;2010;0.037;0.019;0.992;RL35131681;20389554;A;0;0;m
832;323;VD Bystricka;Bystrice;64.1;350;4901626;2954543;CZE;ZLN;Morava;2007;2007;2010;0.057;0.029;0.998;RL35132002;20387775;A;0;0;s
833;324;Jarcova;Vsetinska Becva;723.9;294;4897819;2957057;CZE;ZLN;Morava;1981;2004;2010;0.037;0.019;0.994;RL35132177;20387557;A;0;0;m
834;326;Valasske Mezirici;Roznovska Becva;252.4;292;4897981;2960227;CZE;ZLN;Morava;1981;2004;2010;0.037;0.019;1.004;RL35132215;20386491;A;0;0;m
835;328;Teplice nad Becvou;Becva;1275.3;243;4880680;2964779;CZE;OLM;Morava;1981;2004;2010;0.037;0.019;0.996;RL35132464;20385007;A,K;0;0;m
836;330;Dluhonice;Becva;1592.8;200;4857358;2953352;CZE;OLM;Morava;1981;2004;2010;0.037;0.019;1.004;RL35131950;20387654;A;0;0;m
837;333;VD Plumlov;Hloucela;119.4;260;4830478;2952935;CZE;OLM;Morava;1981;2004;0;0.000;0.000;1.019;RL35131916;20386490;A;0;0;s
838;335;VD Opatovice;Mala Hana;47.4;271;4826318;2933584;CZE;SMO;Morava;1981;2004;0;0.000;0.000;0.996;RL35131104;20390767;A;0;0;s
839;3341;Opatovice nad nadrzi;Mala Hana;30.9;337;4822091;2935491;CZE;SMO;Morava;1993;2004;0;0.000;0.000;0.997;RL35131190;;-;0;0;l
840;339;Kromeriz;Morava;7013.3;183;4858215;2936928;CZE;ZLN;Morava;1981;2004;0;0.000;0.000;1.001;RL35131270;20390893;A,K;0;0;m
841;341;Slusovice;Drevnice;66.4;271;4887812;2934562;CZE;ZLN;Morava;1989;2004;0;0.000;0.000;1.008;RL35131159;20391990;A;0;0;s
842;343;VD Frystak;Frystacky potok;44.3;233;4879842;2934787;CZE;ZLN;Morava;1981;2004;0;0.000;0.000;0.996;RL35131153;20392426;A;0;0;s
843;344;Zlin;Drevnice;311.8;211;4878791;2931091;CZE;ZLN;Morava;1981;2004;0;0.000;0.000;1.015;RL35130930;20393021;A;0;0;s
844;345;Spytihnev;Morava;7890.3;175;4867463;2919005;CZE;ZLN;Morava;1981;2004;0;0.000;0.000;1.002;RL35130362;20395445;A,E,K;0;0;s
845;346;VD Bojkovice;Kolelac;14.2;322;4893262;2912302;CZE;ZLN;Morava;1981;2004;0;0.000;0.000;0.993;RL35130003;20397323;A;0;0;s
846;347;VD Luhacovice;Luhacovicky potok;45.0;265;4887307;2919670;CZE;ZLN;Morava;1981;2004;0;0.000;0.000;1.003;RL35130388;20396579;A;0;0;s
847;349;Uhersky Brod;Olsava;400.9;201;4879121;2907105;CZE;ZLN;Morava;1981;2004;0;0.000;0.000;1.003;RL35129677;20397940;A;0;0;s
848;350;Straznice;Morava;9144.8;163;4854853;2895354;CZE;SMO;Morava;1981;2004;0;0.000;0.000;0.997;RL35129106;20401205;A,E,K;0;0;s
849;352;Lanzhot;Morava;9721.8;150;4834882;2865912;CZE;SMO;Morava;1999;2004;0;0.000;0.000;1.017;RL35127733;20407950;A,I,K;0;0;m
850;353;VD Nova Rise;Recice;23.6;528;4725178;2907821;CZE;VYS;Morava;1981;2004;0;0.000;0.000;0.969;RL35129724;20395240;A,K;0;0;s
851;354;Janov;Moravska Dyje;518.0;440;4718425;2890211;CZE;SBO;Morava;1981;2004;0;0.000;0.000;1.007;RL35128971;20398691;A,K;0;0;m
852;3551;Stare Mesto pod Landstejnem;Pstruhovec;44.2;530;4704890;2888570;CZE;SBO;Morava;2012;2012;0;0.000;0.000;0.998;RL35151056;20401283;A;0;0;s
853;358;Podhradi nad Dyji;Dyje;1755.5;348;4737864;2881677;CZE;SMO;Morava;1981;2004;0;0.000;0.000;1.000;RL35128410;20400981;A,K;0;0;m
854;359;Jemnice;Zeletavka;145.7;437;4727852;2894052;CZE;VYS;Morava;1981;2004;0;0.000;0.000;0.998;RL35129038;20398245;K;0;0;m
855;361;Vranov - Hamry;Dyje;2229.5;304;4747293;2881460;CZE;SMO;Morava;1991;2004;0;0.000;0.000;1.001;RL35128336;20402089;A;1;0;s
856;362;Znojmo;Dyje;2500.3;210;4763958;2878278;CZE;SMO;Morava;1981;2004;0;0.000;0.000;1.007;RL35128194;20403083;A;0;0;s
857;364;Travni Dvur;Dyje;3535.1;173;4793476;2873696;CZE;SMO;Morava;1981;2004;0;0.000;0.000;1.010;RL35128031;20403928;A;0;0;s
858;365;VD Jevisovice;Jevisovka;139.7;314;4758524;2893178;CZE;SMO;Morava;1981;2004;0;0.000;0.000;1.000;RL35128981;20398904;A;0;0;s
859;366;Vyrovice;Jevisovka;382.0;218;4768327;2886995;CZE;SMO;Morava;1981;2004;0;0.000;0.000;0.967;RL35128626;20400636;A;0;0;s
860;369;Borovnice;Svratka;128.0;515;4767164;2970444;CZE;VYS;Morava;1981;2004;0;9.199;9.190;1.006;RL35132604;20381375;K;0;0;m
861;371;Dalecin;Svratka;366.9;470;4771941;2961687;CZE;VYS;Morava;1981;2004;0;0.000;0.000;0.999;RL35132283;20383985;K;0;0;m
862;372;Vir pod vyrovnavaci nadrzi;Svratka;486.6;366;4779102;2956411;CZE;VYS;Morava;1981;2004;0;0.000;0.000;0.995;RL35132071;20384809;A;1;0;s
863;373;Dolni Loucky;Loucka (Bobruvka);385.7;274;4782433;2935913;CZE;SMO;Morava;1981;2004;0;0.000;0.000;1.002;RL35131200;20389237;K;0;0;m
864;374;Veverska Bityska;Svratka;1479.8;228;4789045;2927678;CZE;SMO;Morava;1981;2004;0;0.000;0.000;1.001;RL35130737;20391375;A;0;0;s
865;375;Brno - Porici;Svratka;1637.2;197;4801029;2918528;CZE;SMO;Morava;1988;2004;0;0.000;0.000;0.998;RL35130417;20394369;A;1;0;s
866;377;VD Letovice;Kretinka;126.6;333;4794933;2959016;CZE;SMO;Morava;1981;2004;0;0.000;0.000;1.010;RL35132161;20384480;A;0;0;s
867;378;Letovice;Svitava;423.8;320;4796721;2956776;CZE;SMO;Morava;1981;2004;0;0.000;0.000;1.006;RL35132065;20385411;A;1;0;s
868;379;Boskovice pod prehradou;Bela;56.1;273;4805608;2953333;CZE;SMO;Morava;1981;2004;0;0.000;0.000;1.003;RL35131944;20386374;A;0;0;s
869;380;Bilovice nad Svitavou;Svitava;1120.0;218;4806381;2925642;CZE;SMO;Morava;1981;2004;0;0.000;0.000;1.006;RL35130665;20393534;A,K;0;0;s
870;383;Zidlochovice;Svratka;3938.1;178;4804168;2902005;CZE;SMO;Morava;1981;2004;0;0.000;0.000;1.002;RL35129435;20397516;A;1;0;s
871;385;Dvorce;Jihlava;307.4;501;4720241;2933749;CZE;VYS;Morava;1981;2004;0;0.000;0.000;1.002;RL35131143;20388825;K;0;0;m
872;386;Hubenov pod prehradou;Marsovsky potok;19.8;501;4719373;2934789;CZE;VYS;Morava;1981;2004;0;0.000;0.000;0.990;RL35131142;20388342;A;0;0;s
873;389;Trebic - Ptacov;Jihlava;962.7;385;4752921;2917660;CZE;VYS;Morava;1981;2004;0;0.000;0.000;1.004;RL35130258;20392899;A,K;0;0;m
874;390;Mohelno;Jihlava;1154.8;266;4771931;2906679;CZE;VYS;Morava;1981;2004;0;0.000;0.000;1.003;RL35129762;20396239;A;1;0;s
875;391;Mostiste pod prehradou;Oslava;222.5;445;4757010;2937815;CZE;VYS;Morava;1981;2004;0;0.000;0.000;0.997;RL35131295;20388628;A;0;0;s
876;392;Baliny;Balinka;166.5;437;4753653;2931511;CZE;VYS;Morava;1981;2004;0;0.000;0.000;1.004;RL35131046;20389785;-;0;0;l
877;3931;Nesmer;Oslava;478.8;405;4758601;2929781;CZE;VYS;Morava;1981;2004;0;0.000;0.000;1.004;RL35130954;20390226;A;0;0;s
878;394;Oslavany;Oslava;861.9;211;4783574;2909165;CZE;SMO;Morava;1981;2004;0;0.000;0.000;0.998;RL35129820;20395889;A;0;0;s
879;3961;Moravsky Krumlov;Rokytna;562.3;226;4781406;2901717;CZE;SMO;Morava;1981;2004;0;0.000;0.000;1.007;RL35129670;20397320;K;0;0;m
880;397;Ivancice;Jihlava;2680.0;194;4788789;2905964;CZE;SMO;Morava;1981;2004;0;0.204;0.196;1.003;RL35129681;20398489;A;0;0;s
881;401;Ladna;Dyje;12283.7;157;4823799;2877897;CZE;SMO;Morava;1988;2004;0;0.000;0.000;1.004;RL35128191;20403816;A;1;0;s
882;402;Korycany pod prehradou;Kyjovka;27.6;285;4844983;2914918;CZE;ZLN;Morava;1981;2004;0;0.000;0.000;0.995;RL35130096;20397832;A;0;0;s
